{"type":"FeatureCollection","features":[{"type":"Feature","properties":{"kabupaten":"Kulon Progo","kecamatan":"Temon"},"geometry":{"type":"Polygon","coordinates":[[[110.0871,-7.9019],[110.0808,-7.9165],[110.0764,-7.9169],[110.0035,-7.8883],[110.005,-7.8852],[110.0147,-7.8902],[110.0184,-7.8898],[110.0208,-7.8919],[110.0271,-7.8899],[110.0294,-7.8914],[110.0304,-7.8953],[110.032,-7.8954],[110.0334,-7.8945],[110.0363,-7.8844],[110.0405,-7.8845],[110.0417,-7.8829],[110.0435,-7.8839],[110.0424,-7.879],[110.0431,-7.8728],[110.0448,-7.8731],[110.0449,-7.8714],[110.0436,-7.869],[110.0601,-7.8684],[110.067,-7.8701],[110.0674,-7.8741],[110.0762,-7.8686],[110.0846,-7.8714],[110.0863,-7.8696],[110.0866,-7.8645],[110.0894,-7.8608],[110.1106,-7.8689],[110.1108,-7.8736],[110.1134,-7.8766],[110.1135,-7.8788],[110.1121,-7.8807],[110.1057,-7.8785],[110.1054,-7.8799],[110.1032,-7.88],[110.106,-7.8833],[110.1088,-7.8841],[110.1087,-7.8863],[110.1063,-7.8864],[110.1054,-7.8879],[110.1061,-7.8904],[110.1087,-7.8904],[110.1072,-7.8982],[110.108,-7.9006],[110.1097,-7.8978],[110.1074,-7.9068],[110.0979,-7.9097],[110.0908,-7.9026],[110.0871,-7.9019]],[[110.0714,-7.8937],[110.0714,-7.8936],[110.0705,-7.8934],[110.0714,-7.8937]]]}},{"type":"Feature","properties":{"kabupaten":"Kulon Progo","kecamatan":"Wates"},"geometry":{"type":"Polygon","coordinates":[[[110.1419,-7.903],[110.1388,-7.9082],[110.1336,-7.9102],[110.1171,-7.9105],[110.114,-7.9205],[110.1098,-7.9188],[110.1056,-7.9294],[110.0764,-7.9169],[110.0811,-7.9161],[110.0871,-7.9019],[110.0915,-7.903],[110.0979,-7.9097],[110.1074,-7.9068],[110.1095,-7.9003],[110.1108,-7.888],[110.1142,-7.8878],[110.114,-7.8856],[110.1161,-7.8855],[110.1185,-7.8882],[110.1275,-7.8875],[110.1282,-7.8849],[110.1315,-7.8823],[110.1294,-7.8746],[110.132,-7.8715],[110.1384,-7.8704],[110.142,-7.8678],[110.1413,-7.8645],[110.1453,-7.8631],[110.145,-7.861],[110.1484,-7.8566],[110.1419,-7.8469],[110.1427,-7.842],[110.1492,-7.8483],[110.1491,-7.851],[110.1509,-7.8532],[110.1545,-7.8532],[110.1554,-7.8516],[110.1636,-7.8532],[110.1625,-7.8609],[110.1663,-7.8626],[110.1667,-7.8642],[110.1641,-7.8645],[110.1622,-7.8684],[110.1531,-7.8666],[110.1531,-7.8702],[110.1486,-7.8711],[110.1499,-7.8738],[110.1473,-7.8719],[110.1463,-7.8747],[110.1441,-7.8729],[110.1414,-7.8742],[110.1421,-7.876],[110.1458,-7.8755],[110.1502,-7.8773],[110.1492,-7.8809],[110.1537,-7.8812],[110.1526,-7.9035],[110.1419,-7.903]]]}},{"type":"Feature","properties":{"kabupaten":"Kulon Progo","kecamatan":"Panjatan"},"geometry":{"type":"Polygon","coordinates":[[[110.1706,-7.9338],[110.1707,-7.9361],[110.1754,-7.9372],[110.1652,-7.9584],[110.1408,-7.9455],[110.1056,-7.9294],[110.1098,-7.9188],[110.114,-7.9205],[110.1171,-7.9105],[110.1317,-7.9106],[110.138,-7.9088],[110.1419,-7.9031],[110.1526,-7.9035],[110.1536,-7.8826],[110.1573,-7.8826],[110.1581,-7.8788],[110.166,-7.8796],[110.1677,-7.8827],[110.1745,-7.8851],[110.1757,-7.8847],[110.1771,-7.8789],[110.1743,-7.8744],[110.1802,-7.8753],[110.1793,-7.8831],[110.1855,-7.882],[110.1861,-7.8764],[110.1837,-7.8745],[110.1935,-7.8746],[110.1971,-7.876],[110.1981,-7.8766],[110.1969,-7.8803],[110.1946,-7.8815],[110.1942,-7.8925],[110.188,-7.9032],[110.1835,-7.9204],[110.1812,-7.918],[110.1783,-7.9176],[110.1794,-7.9287],[110.1781,-7.9316],[110.1706,-7.9338]]]}},{"type":"Feature","properties":{"kabupaten":"Kulon Progo","kecamatan":"Galur"},"geometry":{"type":"Polygon","coordinates":[[[110.2394,-7.946],[110.218,-7.9746],[110.2039,-7.9832],[110.1857,-7.9703],[110.1652,-7.9584],[110.1754,-7.9372],[110.1707,-7.9361],[110.1706,-7.9336],[110.1776,-7.9321],[110.1794,-7.9287],[110.1783,-7.9176],[110.1812,-7.918],[110.1839,-7.9209],[110.1816,-7.9269],[110.1821,-7.9291],[110.184,-7.9293],[110.1849,-7.9335],[110.1916,-7.9336],[110.1944,-7.9301],[110.2084,-7.9302],[110.2165,-7.9337],[110.2174,-7.9354],[110.2238,-7.9373],[110.2252,-7.9394],[110.2294,-7.9402],[110.2334,-7.9401],[110.2343,-7.9353],[110.2434,-7.936],[110.2394,-7.946]]]}},{"type":"Feature","properties":{"kabupaten":"Kulon Progo","kecamatan":"Lendah"},"geometry":{"type":"Polygon","coordinates":[[[110.1935,-7.9303],[110.1916,-7.9336],[110.1849,-7.9335],[110.184,-7.9293],[110.1821,-7.9291],[110.1816,-7.9269],[110.188,-7.9032],[110.1917,-7.9027],[110.1932,-7.8982],[110.1944,-7.8998],[110.2029,-7.9003],[110.2042,-7.8945],[110.2082,-7.8958],[110.2128,-7.9003],[110.2176,-7.9004],[110.2178,-7.9059],[110.2278,-7.9072],[110.2287,-7.9046],[110.2314,-7.9054],[110.2334,-7.9047],[110.2338,-7.9024],[110.2357,-7.9035],[110.2362,-7.9015],[110.2406,-7.9013],[110.2379,-7.8982],[110.24,-7.8912],[110.242,-7.8928],[110.2432,-7.8918],[110.2513,-7.8926],[110.2529,-7.8875],[110.255,-7.8858],[110.2597,-7.8884],[110.2687,-7.8852],[110.2719,-7.8896],[110.2741,-7.9005],[110.2737,-7.9096],[110.2708,-7.924],[110.2671,-7.9285],[110.2631,-7.9289],[110.2553,-7.9235],[110.2468,-7.9288],[110.2434,-7.936],[110.2343,-7.9353],[110.2334,-7.9401],[110.2303,-7.9402],[110.2252,-7.9394],[110.2238,-7.9373],[110.2174,-7.9354],[110.2165,-7.9337],[110.2084,-7.9302],[110.1935,-7.9303]]]}},{"type":"Feature","properties":{"kabupaten":"Kulon Progo","kecamatan":"Sentolo"},"geometry":{"type":"Polygon","coordinates":[[[110.24,-7.8912],[110.2379,-7.8982],[110.2406,-7.9013],[110.2362,-7.9015],[110.2357,-7.9035],[110.2338,-7.9024],[110.2334,-7.9047],[110.2314,-7.9054],[110.2287,-7.9046],[110.2278,-7.9072],[110.2178,-7.9059],[110.2176,-7.9004],[110.2128,-7.9003],[110.2082,-7.8958],[110.2042,-7.8945],[110.2029,-7.9003],[110.1944,-7.8998],[110.1932,-7.8982],[110.1917,-7.9027],[110.1885,-7.9025],[110.1942,-7.8925],[110.1946,-7.8815],[110.1969,-7.8803],[110.1981,-7.8766],[110.1969,-7.876],[110.1974,-7.8735],[110.199,-7.8731],[110.2066,-7.8768],[110.2008,-7.8681],[110.1993,-7.8677],[110.201,-7.8645],[110.1991,-7.864],[110.1986,-7.8603],[110.1959,-7.8576],[110.1975,-7.8549],[110.1962,-7.852],[110.19,-7.8526],[110.1879,-7.8509],[110.1813,-7.8275],[110.1823,-7.8253],[110.1893,-7.826],[110.1901,-7.823],[110.1966,-7.8215],[110.197,-7.8236],[110.2014,-7.822],[110.2057,-7.8252],[110.2072,-7.8221],[110.205,-7.8211],[110.2053,-7.815],[110.2071,-7.8105],[110.211,-7.8091],[110.2145,-7.8122],[110.216,-7.8118],[110.2153,-7.8085],[110.2213,-7.8041],[110.2283,-7.8056],[110.2323,-7.81],[110.2342,-7.8169],[110.2337,-7.8231],[110.2307,-7.8301],[110.2265,-7.8341],[110.2219,-7.8351],[110.2211,-7.8375],[110.2264,-7.8427],[110.2313,-7.8443],[110.2375,-7.853],[110.2563,-7.8656],[110.2687,-7.8852],[110.2597,-7.8884],[110.255,-7.8858],[110.2529,-7.8875],[110.2513,-7.8926],[110.2432,-7.8918],[110.242,-7.8928],[110.24,-7.8912]]]}},{"type":"Feature","properties":{"kabupaten":"Kulon Progo","kecamatan":"Pengasih"},"geometry":{"type":"Polygon","coordinates":[[[110.1745,-7.876],[110.1771,-7.8789],[110.1757,-7.8847],[110.1745,-7.8851],[110.1677,-7.8827],[110.166,-7.8796],[110.1581,-7.8788],[110.1573,-7.8826],[110.1537,-7.8823],[110.1537,-7.8812],[110.1492,-7.8809],[110.1502,-7.8773],[110.1458,-7.8755],[110.1417,-7.8756],[110.1414,-7.8742],[110.1441,-7.8729],[110.1463,-7.8747],[110.1466,-7.872],[110.1503,-7.8735],[110.1486,-7.8711],[110.1531,-7.8702],[110.1531,-7.8666],[110.1622,-7.8684],[110.1641,-7.8645],[110.1667,-7.8642],[110.1663,-7.8626],[110.1625,-7.8609],[110.1636,-7.8532],[110.1554,-7.8516],[110.1545,-7.8532],[110.1509,-7.8532],[110.1491,-7.851],[110.1492,-7.8483],[110.1427,-7.842],[110.1419,-7.8469],[110.1484,-7.8561],[110.145,-7.861],[110.1453,-7.8631],[110.1413,-7.8645],[110.142,-7.8678],[110.1384,-7.8704],[110.1345,-7.8706],[110.1305,-7.873],[110.1294,-7.8746],[110.1315,-7.8823],[110.1282,-7.8849],[110.1275,-7.8875],[110.1185,-7.8882],[110.1161,-7.8855],[110.114,-7.8856],[110.1142,-7.8878],[110.1108,-7.888],[110.1097,-7.8978],[110.1087,-7.9007],[110.1077,-7.9002],[110.1087,-7.8904],[110.1061,-7.8904],[110.1054,-7.8879],[110.1063,-7.8864],[110.1087,-7.8863],[110.1088,-7.8841],[110.106,-7.8833],[110.1032,-7.88],[110.1054,-7.8799],[110.1057,-7.8786],[110.1121,-7.8807],[110.1196,-7.8771],[110.1263,-7.877],[110.1261,-7.8696],[110.1233,-7.8704],[110.1233,-7.8694],[110.1248,-7.8687],[110.1258,-7.865],[110.1279,-7.8519],[110.1246,-7.8474],[110.1307,-7.8376],[110.1275,-7.8281],[110.1278,-7.8223],[110.1243,-7.8164],[110.1257,-7.8148],[110.1257,-7.8079],[110.1269,-7.8066],[110.1327,-7.8098],[110.134,-7.8082],[110.1307,-7.8037],[110.1322,-7.8019],[110.1424,-7.7991],[110.1434,-7.7977],[110.1415,-7.7937],[110.1362,-7.7909],[110.1341,-7.7869],[110.1309,-7.7845],[110.1331,-7.7791],[110.1392,-7.78],[110.1405,-7.7746],[110.1373,-7.7683],[110.1379,-7.7624],[110.144,-7.7598],[110.1484,-7.762],[110.1534,-7.771],[110.1597,-7.7749],[110.1576,-7.7821],[110.1669,-7.7882],[110.1721,-7.7886],[110.1744,-7.7968],[110.1708,-7.8002],[110.1711,-7.8041],[110.1684,-7.806],[110.1695,-7.8095],[110.1678,-7.8163],[110.1656,-7.8172],[110.1622,-7.8223],[110.1635,-7.8265],[110.1665,-7.8233],[110.1703,-7.8242],[110.1717,-7.8221],[110.1823,-7.8253],[110.1813,-7.8275],[110.1827,-7.8299],[110.1823,-7.8329],[110.1879,-7.8509],[110.19,-7.8526],[110.1962,-7.852],[110.1975,-7.8549],[110.1959,-7.8576],[110.1986,-7.8603],[110.1991,-7.864],[110.201,-7.8645],[110.1993,-7.8677],[110.2008,-7.8681],[110.2066,-7.8768],[110.1979,-7.8728],[110.1969,-7.876],[110.1935,-7.8746],[110.1837,-7.8745],[110.1861,-7.8764],[110.1855,-7.882],[110.1814,-7.8832],[110.1793,-7.8831],[110.1802,-7.8753],[110.175,-7.8743],[110.1745,-7.876]]]}},{"type":"Feature","properties":{"kabupaten":"Kulon Progo","kecamatan":"Kokap"},"geometry":{"type":"Polygon","coordinates":[[[110.0888,-7.8611],[110.0866,-7.8645],[110.0855,-7.8711],[110.0762,-7.8686],[110.0674,-7.8741],[110.067,-7.8701],[110.0601,-7.8684],[110.0436,-7.869],[110.0427,-7.866],[110.0431,-7.86],[110.0506,-7.8514],[110.0517,-7.8455],[110.0501,-7.8416],[110.0586,-7.8357],[110.0626,-7.8131],[110.0673,-7.8093],[110.0733,-7.8092],[110.0811,-7.8068],[110.0918,-7.7875],[110.0983,-7.783],[110.1017,-7.7751],[110.1062,-7.7788],[110.1107,-7.778],[110.1234,-7.7887],[110.1254,-7.788],[110.127,-7.7829],[110.1296,-7.7836],[110.1341,-7.7869],[110.1362,-7.7909],[110.1415,-7.7937],[110.1434,-7.7977],[110.1424,-7.7991],[110.1322,-7.8019],[110.1307,-7.8037],[110.134,-7.8082],[110.1327,-7.8098],[110.1277,-7.8063],[110.1257,-7.8079],[110.1257,-7.8148],[110.1243,-7.8167],[110.1278,-7.8223],[110.1275,-7.8281],[110.1307,-7.8376],[110.1246,-7.8474],[110.1279,-7.8519],[110.1258,-7.865],[110.1248,-7.8687],[110.1233,-7.8694],[110.1233,-7.8704],[110.1261,-7.8696],[110.1263,-7.877],[110.1196,-7.8771],[110.1128,-7.8805],[110.1134,-7.8766],[110.1108,-7.8736],[110.1106,-7.8689],[110.0888,-7.8611]]]}},{"type":"Feature","properties":{"kabupaten":"Kulon Progo","kecamatan":"Girimulyo"},"geometry":{"type":"Polygon","coordinates":[[[110.1988,-7.7654],[110.1916,-7.769],[110.193,-7.7734],[110.1911,-7.7738],[110.1883,-7.7779],[110.1877,-7.781],[110.1891,-7.7837],[110.1879,-7.7857],[110.176,-7.785],[110.1756,-7.7886],[110.168,-7.7884],[110.1576,-7.7821],[110.1597,-7.7749],[110.1534,-7.771],[110.1484,-7.762],[110.144,-7.7598],[110.1379,-7.7624],[110.1373,-7.7683],[110.1405,-7.7746],[110.1392,-7.78],[110.1331,-7.7791],[110.1315,-7.7844],[110.1274,-7.7826],[110.125,-7.7886],[110.1231,-7.7885],[110.1107,-7.778],[110.1122,-7.7724],[110.1145,-7.7705],[110.1141,-7.7645],[110.1225,-7.752],[110.1297,-7.7484],[110.1304,-7.7408],[110.1323,-7.7405],[110.1321,-7.7347],[110.1241,-7.7292],[110.1273,-7.7162],[110.1352,-7.7118],[110.14,-7.7128],[110.1402,-7.7162],[110.1481,-7.7167],[110.1514,-7.7127],[110.1527,-7.717],[110.1576,-7.719],[110.1636,-7.7193],[110.169,-7.7149],[110.1721,-7.7145],[110.1739,-7.7172],[110.1797,-7.7197],[110.1814,-7.7188],[110.184,-7.7202],[110.1898,-7.7198],[110.1925,-7.7218],[110.1865,-7.7237],[110.1847,-7.7283],[110.1898,-7.7278],[110.1984,-7.7328],[110.1971,-7.7348],[110.1975,-7.7387],[110.1994,-7.7422],[110.197,-7.7508],[110.2002,-7.7514],[110.1999,-7.7616],[110.1988,-7.7654]]]}},{"type":"Feature","properties":{"kabupaten":"Kulon Progo","kecamatan":"Nanggulan"},"geometry":{"type":"Polygon","coordinates":[[[110.2198,-7.7751],[110.2209,-7.7779],[110.228,-7.7851],[110.229,-7.7888],[110.233,-7.7911],[110.236,-7.7983],[110.2351,-7.8004],[110.2299,-7.8031],[110.2283,-7.8056],[110.2213,-7.8041],[110.2179,-7.8058],[110.2153,-7.8085],[110.216,-7.8118],[110.2149,-7.8122],[110.211,-7.8091],[110.2071,-7.8105],[110.2053,-7.815],[110.205,-7.8211],[110.2072,-7.8221],[110.2057,-7.8252],[110.2014,-7.822],[110.197,-7.8236],[110.1966,-7.8215],[110.1906,-7.8227],[110.1893,-7.826],[110.1873,-7.8261],[110.1797,-7.8252],[110.1717,-7.8221],[110.1703,-7.8242],[110.1665,-7.8233],[110.1635,-7.8265],[110.1622,-7.8223],[110.1656,-7.8172],[110.1678,-7.8163],[110.1695,-7.8095],[110.1684,-7.806],[110.1711,-7.8041],[110.1708,-7.8002],[110.1744,-7.7968],[110.1721,-7.7886],[110.1756,-7.7886],[110.176,-7.785],[110.1827,-7.7845],[110.1868,-7.7859],[110.1889,-7.7842],[110.1883,-7.7779],[110.1911,-7.7738],[110.193,-7.7734],[110.1916,-7.769],[110.1988,-7.7654],[110.1999,-7.7616],[110.2002,-7.7514],[110.197,-7.7508],[110.1994,-7.7422],[110.1976,-7.7382],[110.2048,-7.7341],[110.2112,-7.7347],[110.2143,-7.7374],[110.2161,-7.7365],[110.2162,-7.7331],[110.2204,-7.7355],[110.2165,-7.7383],[110.2159,-7.7417],[110.2195,-7.748],[110.2177,-7.7517],[110.2202,-7.7547],[110.2185,-7.7581],[110.222,-7.7599],[110.2195,-7.763],[110.2224,-7.7672],[110.2218,-7.7732],[110.2198,-7.7751]],[[110.2092,-7.7739],[110.2088,-7.7735],[110.2088,-7.7736],[110.2092,-7.7739]]]}},{"type":"Feature","properties":{"kabupaten":"Kulon Progo","kecamatan":"Samigaluh"},"geometry":{"type":"Polygon","coordinates":[[[110.1721,-7.7145],[110.1636,-7.7193],[110.1587,-7.7192],[110.1527,-7.717],[110.1518,-7.7128],[110.1481,-7.7167],[110.1402,-7.7162],[110.14,-7.7128],[110.1337,-7.7119],[110.1358,-7.706],[110.1346,-7.704],[110.1321,-7.7036],[110.1309,-7.7011],[110.1318,-7.6992],[110.1386,-7.6948],[110.1364,-7.6885],[110.1316,-7.6837],[110.1253,-7.6819],[110.1269,-7.6773],[110.1232,-7.6763],[110.1211,-7.6728],[110.1173,-7.6709],[110.1183,-7.668],[110.122,-7.6677],[110.123,-7.6636],[110.1301,-7.6577],[110.1308,-7.6543],[110.1364,-7.6541],[110.1374,-7.6511],[110.1405,-7.6486],[110.1414,-7.6449],[110.1433,-7.6448],[110.1454,-7.6499],[110.1514,-7.6463],[110.156,-7.6471],[110.1599,-7.6458],[110.1616,-7.6482],[110.1627,-7.6466],[110.1658,-7.6489],[110.1918,-7.645],[110.198,-7.6495],[110.2052,-7.652],[110.2055,-7.6548],[110.2072,-7.656],[110.2108,-7.6699],[110.2155,-7.6784],[110.2145,-7.6824],[110.208,-7.6865],[110.2095,-7.6908],[110.2087,-7.6956],[110.2058,-7.7001],[110.208,-7.703],[110.2148,-7.7067],[110.2139,-7.7119],[110.209,-7.7174],[110.2046,-7.7191],[110.198,-7.7166],[110.1952,-7.7197],[110.1849,-7.7203],[110.1745,-7.7176],[110.1721,-7.7145]]]}},{"type":"Feature","properties":{"kabupaten":"Kulon Progo","kecamatan":"Kalibawang"},"geometry":{"type":"Polygon","coordinates":[[[110.1925,-7.7218],[110.1898,-7.7198],[110.1959,-7.7195],[110.198,-7.7166],[110.203,-7.7189],[110.207,-7.7185],[110.2125,-7.7138],[110.2146,-7.7092],[110.2148,-7.7067],[110.208,-7.703],[110.2058,-7.7001],[110.2087,-7.6956],[110.2095,-7.6908],[110.208,-7.6865],[110.2145,-7.6824],[110.2155,-7.6784],[110.2108,-7.6699],[110.2052,-7.652],[110.2133,-7.648],[110.2331,-7.6506],[110.2405,-7.6543],[110.2451,-7.6511],[110.2474,-7.6464],[110.2503,-7.6461],[110.2514,-7.6428],[110.2538,-7.6416],[110.2634,-7.6458],[110.2661,-7.6499],[110.2638,-7.6526],[110.2648,-7.6559],[110.263,-7.6607],[110.266,-7.6618],[110.2672,-7.6646],[110.2653,-7.6683],[110.2659,-7.6739],[110.263,-7.6789],[110.2644,-7.682],[110.2609,-7.6869],[110.2656,-7.6906],[110.2707,-7.7032],[110.2703,-7.7057],[110.2678,-7.7073],[110.2584,-7.7043],[110.253,-7.7086],[110.2438,-7.7101],[110.2373,-7.7134],[110.233,-7.7134],[110.2316,-7.7166],[110.2318,-7.7226],[110.2249,-7.7235],[110.2208,-7.7352],[110.2162,-7.7331],[110.2161,-7.7365],[110.2143,-7.7374],[110.2112,-7.7347],[110.2065,-7.7336],[110.1976,-7.7382],[110.1971,-7.7348],[110.1984,-7.7328],[110.1898,-7.7278],[110.1847,-7.7283],[110.1865,-7.7237],[110.1925,-7.7218]]]}},{"type":"Feature","properties":{"kabupaten":"Bantul","kecamatan":"Srandakan"},"geometry":{"type":"Polygon","coordinates":[[[110.2546,-7.9535],[110.2501,-7.9656],[110.244,-7.9676],[110.2426,-7.9693],[110.2418,-7.9749],[110.2439,-7.9792],[110.2425,-7.9822],[110.247,-7.9837],[110.2417,-7.9973],[110.2039,-7.9832],[110.2144,-7.9776],[110.2196,-7.9727],[110.2377,-7.9489],[110.2447,-7.9324],[110.2482,-7.9275],[110.2553,-7.9235],[110.2631,-7.9289],[110.2671,-7.9285],[110.2697,-7.9259],[110.2726,-7.9266],[110.2718,-7.9289],[110.2731,-7.9318],[110.2678,-7.9325],[110.2669,-7.9397],[110.2645,-7.94],[110.2628,-7.9319],[110.2607,-7.9322],[110.2605,-7.9351],[110.2555,-7.9382],[110.2546,-7.9421],[110.2595,-7.9439],[110.2595,-7.9472],[110.2644,-7.9478],[110.2624,-7.9497],[110.261,-7.9545],[110.2546,-7.9535]]]}},{"type":"Feature","properties":{"kabupaten":"Bantul","kecamatan":"Sanden"},"geometry":{"type":"Polygon","coordinates":[[[110.2846,-7.9711],[110.2867,-7.9724],[110.2874,-7.976],[110.2891,-7.9763],[110.2901,-7.9845],[110.2875,-7.9905],[110.284,-7.9904],[110.2828,-7.9984],[110.28,-8.0025],[110.2782,-8.003],[110.2748,-8.0094],[110.2417,-7.9973],[110.247,-7.9837],[110.2425,-7.9822],[110.2439,-7.9792],[110.2418,-7.9749],[110.2426,-7.9693],[110.244,-7.9676],[110.2501,-7.9656],[110.2548,-7.9533],[110.2704,-7.9571],[110.278,-7.9568],[110.2782,-7.9612],[110.2799,-7.963],[110.2858,-7.9666],[110.2906,-7.9655],[110.2901,-7.9705],[110.2868,-7.9696],[110.2846,-7.9711]]]}},{"type":"Feature","properties":{"kabupaten":"Bantul","kecamatan":"Kretek"},"geometry":{"type":"Polygon","coordinates":[[[110.3186,-7.9879],[110.3229,-8.0004],[110.3307,-8.0072],[110.3359,-8.0222],[110.3399,-8.0282],[110.307,-8.0176],[110.2748,-8.0094],[110.2782,-8.003],[110.28,-8.0025],[110.2828,-7.9984],[110.284,-7.9904],[110.2875,-7.9905],[110.2901,-7.9845],[110.2891,-7.9763],[110.2874,-7.976],[110.2867,-7.9724],[110.2843,-7.9705],[110.2862,-7.9709],[110.2868,-7.9696],[110.2901,-7.9705],[110.2906,-7.9655],[110.2858,-7.9666],[110.2799,-7.963],[110.2782,-7.9612],[110.278,-7.9568],[110.2812,-7.9584],[110.2817,-7.9572],[110.2858,-7.9565],[110.2847,-7.9594],[110.2892,-7.9628],[110.3091,-7.9705],[110.3262,-7.9736],[110.3262,-7.9753],[110.3287,-7.9765],[110.33,-7.9795],[110.3281,-7.984],[110.3229,-7.984],[110.3186,-7.9879]]]}},{"type":"Feature","properties":{"kabupaten":"Bantul","kecamatan":"Pundong"},"geometry":{"type":"Polygon","coordinates":[[[110.3598,-7.9584],[110.3605,-7.9605],[110.3642,-7.9624],[110.3646,-7.9673],[110.3675,-7.9737],[110.3652,-7.9727],[110.363,-7.9815],[110.3584,-7.982],[110.3553,-7.9781],[110.3528,-7.9784],[110.3504,-7.9744],[110.348,-7.9742],[110.3527,-7.9808],[110.3502,-7.984],[110.3494,-7.9884],[110.3506,-7.9899],[110.3531,-7.9876],[110.3522,-7.9937],[110.3418,-7.9917],[110.3391,-7.9924],[110.3319,-7.9977],[110.3307,-8.0072],[110.3283,-8.0058],[110.3229,-8.0004],[110.3185,-7.9876],[110.3229,-7.984],[110.328,-7.9841],[110.33,-7.9795],[110.3253,-7.9735],[110.3258,-7.9685],[110.3218,-7.9681],[110.3214,-7.9664],[110.323,-7.9593],[110.3252,-7.9572],[110.3321,-7.9404],[110.3334,-7.9418],[110.338,-7.9376],[110.3412,-7.9427],[110.3394,-7.9441],[110.3497,-7.9447],[110.3501,-7.9462],[110.3621,-7.9441],[110.3658,-7.945],[110.3656,-7.9551],[110.3598,-7.9584]]]}},{"type":"Feature","properties":{"kabupaten":"Bantul","kecamatan":"Bambanglipuro"},"geometry":{"type":"Polygon","coordinates":[[[110.323,-7.9593],[110.3218,-7.9681],[110.3258,-7.9685],[110.3253,-7.9735],[110.3091,-7.9705],[110.2892,-7.9628],[110.2847,-7.9594],[110.286,-7.9566],[110.2817,-7.9572],[110.2808,-7.9541],[110.2834,-7.9537],[110.281,-7.9463],[110.2827,-7.9441],[110.2901,-7.9447],[110.2927,-7.9391],[110.2971,-7.9393],[110.2999,-7.9411],[110.3031,-7.9346],[110.3051,-7.9348],[110.3066,-7.9327],[110.3055,-7.93],[110.3021,-7.931],[110.3023,-7.929],[110.304,-7.9231],[110.3073,-7.9237],[110.3082,-7.9203],[110.3133,-7.9215],[110.315,-7.9183],[110.3158,-7.9201],[110.3166,-7.9176],[110.3178,-7.9191],[110.3182,-7.9178],[110.3268,-7.9189],[110.3266,-7.9213],[110.3293,-7.919],[110.3345,-7.9177],[110.3377,-7.9184],[110.3388,-7.9161],[110.3439,-7.9209],[110.346,-7.9213],[110.3468,-7.9192],[110.3478,-7.9195],[110.3458,-7.9247],[110.3408,-7.9243],[110.334,-7.9352],[110.3252,-7.9572],[110.323,-7.9593]]]}},{"type":"Feature","properties":{"kabupaten":"Bantul","kecamatan":"Pandak"},"geometry":{"type":"Polygon","coordinates":[[[110.281,-7.9463],[110.2834,-7.9537],[110.2808,-7.9541],[110.2815,-7.9582],[110.278,-7.9568],[110.2704,-7.9571],[110.261,-7.9545],[110.2624,-7.9497],[110.2644,-7.9478],[110.2595,-7.9472],[110.2595,-7.9439],[110.2546,-7.9421],[110.2544,-7.9406],[110.2555,-7.9382],[110.2605,-7.9351],[110.2607,-7.9322],[110.2631,-7.9325],[110.2645,-7.94],[110.2669,-7.9397],[110.2678,-7.9325],[110.2731,-7.9318],[110.2718,-7.9289],[110.2726,-7.9266],[110.2697,-7.9259],[110.2737,-7.9096],[110.2804,-7.91],[110.2817,-7.9067],[110.281,-7.9035],[110.2846,-7.901],[110.2844,-7.8971],[110.2907,-7.9004],[110.2939,-7.8988],[110.2945,-7.892],[110.2976,-7.8923],[110.2996,-7.8902],[110.2991,-7.8941],[110.302,-7.8963],[110.3054,-7.8962],[110.3095,-7.891],[110.3107,-7.8913],[110.3106,-7.8938],[110.3133,-7.8947],[110.3132,-7.9013],[110.3147,-7.9059],[110.3139,-7.9115],[110.3154,-7.9132],[110.3134,-7.9143],[110.3125,-7.9176],[110.3149,-7.9182],[110.3139,-7.9205],[110.3129,-7.9215],[110.3082,-7.9203],[110.3073,-7.9237],[110.304,-7.9231],[110.3021,-7.931],[110.3055,-7.93],[110.3066,-7.9327],[110.3051,-7.9348],[110.3031,-7.9346],[110.2999,-7.9411],[110.2971,-7.9393],[110.2927,-7.9391],[110.2901,-7.9447],[110.2827,-7.9441],[110.281,-7.9463]]]}},{"type":"Feature","properties":{"kabupaten":"Bantul","kecamatan":"Pajangan"},"geometry":{"type":"Polygon","coordinates":[[[110.2876,-7.8488],[110.2902,-7.8514],[110.2984,-7.8519],[110.3031,-7.8547],[110.3076,-7.8545],[110.3095,-7.8527],[110.3163,-7.8549],[110.3187,-7.8599],[110.3242,-7.8613],[110.3217,-7.8643],[110.3246,-7.8656],[110.3233,-7.8696],[110.3256,-7.871],[110.321,-7.8784],[110.3152,-7.8781],[110.3143,-7.8801],[110.3105,-7.8793],[110.3096,-7.8803],[110.3113,-7.8881],[110.3062,-7.896],[110.302,-7.8963],[110.2991,-7.8941],[110.2996,-7.8902],[110.2976,-7.8923],[110.2945,-7.892],[110.2939,-7.8988],[110.29,-7.9003],[110.2844,-7.8971],[110.2846,-7.901],[110.281,-7.9035],[110.2817,-7.9067],[110.2804,-7.91],[110.2737,-7.9096],[110.2727,-7.8914],[110.2564,-7.8658],[110.2575,-7.8619],[110.2593,-7.8618],[110.259,-7.8593],[110.2571,-7.858],[110.2578,-7.8544],[110.2608,-7.8522],[110.271,-7.8373],[110.2773,-7.8373],[110.2788,-7.8342],[110.282,-7.8343],[110.2847,-7.8368],[110.2804,-7.847],[110.2876,-7.8488]]]}},{"type":"Feature","properties":{"kabupaten":"Bantul","kecamatan":"Bantul"},"geometry":{"type":"Polygon","coordinates":[[[110.3345,-7.9177],[110.3266,-7.9213],[110.3268,-7.9189],[110.3182,-7.9178],[110.3178,-7.9191],[110.3161,-7.9176],[110.3155,-7.9201],[110.3149,-7.9182],[110.3125,-7.918],[110.3131,-7.9148],[110.3154,-7.9125],[110.3139,-7.9115],[110.3147,-7.9059],[110.3132,-7.9013],[110.3133,-7.8947],[110.3106,-7.8938],[110.3107,-7.8913],[110.3095,-7.8909],[110.3113,-7.8881],[110.3095,-7.8807],[110.3105,-7.8793],[110.3143,-7.8801],[110.3152,-7.8781],[110.3214,-7.8779],[110.3256,-7.871],[110.3233,-7.8696],[110.3246,-7.8656],[110.3217,-7.8643],[110.3242,-7.8614],[110.3298,-7.8661],[110.3289,-7.8692],[110.3309,-7.8693],[110.3304,-7.871],[110.3338,-7.8763],[110.3366,-7.8771],[110.3366,-7.8795],[110.3424,-7.8816],[110.3429,-7.8799],[110.3479,-7.8798],[110.3481,-7.8845],[110.351,-7.8881],[110.3533,-7.888],[110.3536,-7.8855],[110.3553,-7.8856],[110.3551,-7.8818],[110.3567,-7.8822],[110.3563,-7.8861],[110.3579,-7.8867],[110.3595,-7.886],[110.3595,-7.8823],[110.3612,-7.8815],[110.361,-7.8837],[110.3636,-7.8872],[110.3616,-7.891],[110.3612,-7.8977],[110.3582,-7.8982],[110.3567,-7.9004],[110.354,-7.8987],[110.354,-7.8968],[110.3508,-7.9064],[110.3437,-7.9049],[110.3441,-7.9077],[110.3463,-7.9083],[110.3461,-7.9112],[110.3474,-7.9119],[110.3436,-7.9172],[110.3469,-7.9191],[110.346,-7.9213],[110.3418,-7.9197],[110.3422,-7.9182],[110.3388,-7.9161],[110.3377,-7.9184],[110.3345,-7.9177]]]}},{"type":"Feature","properties":{"kabupaten":"Bantul","kecamatan":"Jetis"},"geometry":{"type":"Polygon","coordinates":[[[110.3678,-7.9199],[110.3673,-7.9303],[110.3628,-7.9385],[110.3635,-7.9416],[110.3671,-7.9425],[110.3662,-7.9454],[110.3621,-7.9441],[110.3501,-7.9462],[110.3497,-7.9447],[110.3394,-7.9441],[110.3412,-7.9427],[110.338,-7.9376],[110.3334,-7.9418],[110.3322,-7.9403],[110.3396,-7.9257],[110.3413,-7.9242],[110.3458,-7.9247],[110.3476,-7.9218],[110.3478,-7.9195],[110.3436,-7.9172],[110.3474,-7.9119],[110.3461,-7.9112],[110.3463,-7.9083],[110.3441,-7.9077],[110.3437,-7.9049],[110.3508,-7.9064],[110.354,-7.8968],[110.354,-7.8987],[110.3567,-7.9004],[110.3582,-7.8982],[110.3612,-7.8977],[110.3616,-7.891],[110.3634,-7.8874],[110.3659,-7.8861],[110.3663,-7.8812],[110.3744,-7.8834],[110.3761,-7.8822],[110.3771,-7.8765],[110.3816,-7.8786],[110.3829,-7.8753],[110.386,-7.8754],[110.3862,-7.8771],[110.394,-7.8775],[110.397,-7.8863],[110.3953,-7.8874],[110.3942,-7.8922],[110.3955,-7.8977],[110.3941,-7.8993],[110.3911,-7.8974],[110.3861,-7.8972],[110.3857,-7.8999],[110.3886,-7.9017],[110.3881,-7.9029],[110.3815,-7.9044],[110.3757,-7.9135],[110.375,-7.9191],[110.3678,-7.9199]]]}},{"type":"Feature","properties":{"kabupaten":"Bantul","kecamatan":"Imogiri"},"geometry":{"type":"Polygon","coordinates":[[[110.4247,-7.954],[110.4277,-7.9582],[110.4306,-7.9594],[110.4315,-7.9631],[110.4295,-7.9665],[110.4209,-7.9734],[110.4084,-7.9715],[110.4045,-7.9682],[110.3971,-7.9671],[110.3956,-7.9686],[110.3963,-7.9737],[110.3994,-7.9788],[110.3976,-7.9807],[110.3931,-7.9812],[110.3858,-7.9794],[110.3739,-7.9793],[110.3675,-7.9738],[110.3646,-7.9673],[110.3642,-7.9624],[110.3605,-7.9605],[110.3597,-7.958],[110.3651,-7.9558],[110.3659,-7.9537],[110.3651,-7.9469],[110.3671,-7.9425],[110.3635,-7.9416],[110.3628,-7.9385],[110.3673,-7.9303],[110.367,-7.9204],[110.375,-7.9191],[110.3757,-7.9135],[110.3815,-7.9044],[110.3873,-7.9036],[110.3885,-7.9022],[110.3857,-7.8999],[110.3865,-7.8969],[110.3911,-7.8974],[110.3941,-7.8993],[110.3955,-7.8969],[110.4095,-7.8954],[110.4166,-7.8914],[110.4274,-7.8955],[110.4295,-7.8997],[110.4369,-7.905],[110.4355,-7.912],[110.4263,-7.922],[110.4257,-7.9261],[110.4069,-7.9312],[110.4076,-7.9363],[110.4123,-7.9366],[110.427,-7.9439],[110.4278,-7.9489],[110.4247,-7.954]],[[110.3867,-7.9233],[110.3866,-7.923],[110.3867,-7.9236],[110.3867,-7.9233]]]}},{"type":"Feature","properties":{"kabupaten":"Bantul","kecamatan":"Dlingo"},"geometry":{"type":"Polygon","coordinates":[[[110.4886,-7.9397],[110.4896,-7.942],[110.4883,-7.945],[110.482,-7.9421],[110.4762,-7.9429],[110.4781,-7.9503],[110.4726,-7.9535],[110.476,-7.9647],[110.4751,-7.9668],[110.4727,-7.9674],[110.4774,-7.9711],[110.4747,-7.9719],[110.4734,-7.9703],[110.4692,-7.9698],[110.4675,-7.9712],[110.4633,-7.9683],[110.4646,-7.9665],[110.4676,-7.9666],[110.4706,-7.9629],[110.4647,-7.9588],[110.4645,-7.9572],[110.467,-7.9546],[110.4571,-7.9575],[110.4574,-7.9652],[110.4547,-7.9674],[110.4506,-7.9608],[110.4514,-7.955],[110.4548,-7.9515],[110.4504,-7.947],[110.4455,-7.949],[110.4436,-7.9515],[110.4447,-7.9575],[110.4433,-7.967],[110.4345,-7.9662],[110.4306,-7.9625],[110.4306,-7.9594],[110.4277,-7.9582],[110.4247,-7.954],[110.4278,-7.9489],[110.427,-7.9439],[110.4123,-7.9366],[110.4079,-7.9361],[110.4069,-7.9312],[110.4261,-7.9257],[110.4263,-7.922],[110.4355,-7.912],[110.4372,-7.9068],[110.434,-7.9022],[110.4308,-7.9009],[110.4466,-7.8865],[110.4463,-7.8827],[110.4519,-7.8752],[110.4609,-7.8699],[110.4617,-7.8679],[110.4641,-7.8668],[110.4655,-7.8687],[110.4673,-7.8668],[110.4676,-7.8712],[110.4749,-7.8848],[110.4761,-7.8899],[110.4923,-7.8897],[110.4963,-7.8924],[110.4957,-7.8964],[110.4978,-7.9001],[110.4976,-7.9055],[110.4959,-7.9141],[110.4913,-7.9253],[110.4932,-7.9316],[110.4921,-7.9381],[110.4886,-7.9397]]]}},{"type":"Feature","properties":{"kabupaten":"Bantul","kecamatan":"Banguntapan"},"geometry":{"type":"Polygon","coordinates":[[[110.4274,-7.8471],[110.4296,-7.8521],[110.4208,-7.8628],[110.4089,-7.8597],[110.4094,-7.8553],[110.4038,-7.8546],[110.4019,-7.8632],[110.3964,-7.8616],[110.3974,-7.8587],[110.3937,-7.8584],[110.3938,-7.856],[110.3902,-7.8553],[110.3898,-7.8579],[110.3862,-7.8584],[110.3851,-7.857],[110.376,-7.8547],[110.3755,-7.8517],[110.3801,-7.8522],[110.3803,-7.8484],[110.3816,-7.8475],[110.3804,-7.8463],[110.3813,-7.845],[110.3803,-7.8396],[110.3767,-7.8407],[110.3754,-7.8356],[110.3769,-7.8323],[110.3754,-7.831],[110.3761,-7.8292],[110.3768,-7.831],[110.3802,-7.8298],[110.3799,-7.8286],[110.3845,-7.8291],[110.3861,-7.8341],[110.3878,-7.8341],[110.3869,-7.8365],[110.3881,-7.8368],[110.3881,-7.8401],[110.3899,-7.8402],[110.3906,-7.8369],[110.3953,-7.8367],[110.396,-7.8328],[110.3934,-7.8296],[110.3937,-7.8271],[110.3993,-7.8278],[110.3989,-7.8334],[110.4008,-7.832],[110.4022,-7.834],[110.4065,-7.8345],[110.4067,-7.8315],[110.4051,-7.8304],[110.4042,-7.8254],[110.4048,-7.8225],[110.4011,-7.8205],[110.4024,-7.8022],[110.3978,-7.802],[110.3987,-7.8002],[110.396,-7.7944],[110.3971,-7.7864],[110.3986,-7.7855],[110.3984,-7.7883],[110.4037,-7.7879],[110.4063,-7.7855],[110.4066,-7.7876],[110.4092,-7.7863],[110.4094,-7.7874],[110.4208,-7.7864],[110.4214,-7.7907],[110.4203,-7.7917],[110.4229,-7.7963],[110.421,-7.8068],[110.421,-7.8167],[110.423,-7.8186],[110.4214,-7.8214],[110.4268,-7.8231],[110.4283,-7.8216],[110.4261,-7.827],[110.4285,-7.8298],[110.4315,-7.8303],[110.4311,-7.8321],[110.4299,-7.8319],[110.4299,-7.8358],[110.4283,-7.8355],[110.4285,-7.8393],[110.4268,-7.8395],[110.4272,-7.8422],[110.4292,-7.8432],[110.4274,-7.8471]]]}},{"type":"Feature","properties":{"kabupaten":"Bantul","kecamatan":"Pleret"},"geometry":{"type":"Polygon","coordinates":[[[110.4274,-7.8955],[110.4154,-7.8915],[110.4095,-7.8954],[110.3954,-7.8969],[110.3942,-7.8922],[110.3953,-7.8874],[110.397,-7.8863],[110.394,-7.8799],[110.3945,-7.8782],[110.3908,-7.8767],[110.3862,-7.8771],[110.3856,-7.8752],[110.3823,-7.8757],[110.3819,-7.8727],[110.3796,-7.8717],[110.3814,-7.8666],[110.3786,-7.8666],[110.376,-7.8547],[110.3851,-7.857],[110.3862,-7.8584],[110.3898,-7.8579],[110.3902,-7.8553],[110.3938,-7.856],[110.3937,-7.8584],[110.3974,-7.8587],[110.3964,-7.8616],[110.4019,-7.8632],[110.4038,-7.8546],[110.4094,-7.8553],[110.4089,-7.8597],[110.4208,-7.8628],[110.4206,-7.8642],[110.4255,-7.8641],[110.4294,-7.8721],[110.4316,-7.8713],[110.4342,-7.8673],[110.4431,-7.8649],[110.4444,-7.868],[110.4436,-7.8691],[110.4459,-7.8712],[110.4487,-7.8705],[110.4547,-7.8729],[110.4467,-7.882],[110.4466,-7.8865],[110.4318,-7.9006],[110.4295,-7.8997],[110.4274,-7.8955]]]}},{"type":"Feature","properties":{"kabupaten":"Bantul","kecamatan":"Piyungan"},"geometry":{"type":"Polygon","coordinates":[[[110.4426,-7.8651],[110.4342,-7.8673],[110.4316,-7.8713],[110.4294,-7.8721],[110.4255,-7.8641],[110.4206,-7.8642],[110.4211,-7.8612],[110.4296,-7.8521],[110.4274,-7.8476],[110.4292,-7.8432],[110.4267,-7.8402],[110.4286,-7.8391],[110.4283,-7.8355],[110.4299,-7.8358],[110.4299,-7.8373],[110.4354,-7.8366],[110.4341,-7.835],[110.4364,-7.8294],[110.441,-7.8275],[110.4443,-7.8278],[110.4439,-7.8239],[110.4526,-7.8247],[110.4537,-7.8206],[110.4561,-7.8214],[110.46,-7.8198],[110.4612,-7.8227],[110.462,-7.8212],[110.4651,-7.8221],[110.4661,-7.8277],[110.4698,-7.8286],[110.4699,-7.8271],[110.4684,-7.8271],[110.4732,-7.8232],[110.4759,-7.8238],[110.4756,-7.8251],[110.4769,-7.8254],[110.4771,-7.8241],[110.4794,-7.8249],[110.4814,-7.8175],[110.4854,-7.8185],[110.4845,-7.8213],[110.4923,-7.8229],[110.5015,-7.8224],[110.5053,-7.8236],[110.5071,-7.8231],[110.5069,-7.8216],[110.5093,-7.8221],[110.5112,-7.8289],[110.5144,-7.8281],[110.515,-7.8302],[110.5212,-7.8322],[110.5196,-7.8358],[110.5074,-7.8392],[110.4972,-7.838],[110.4942,-7.8394],[110.4886,-7.8377],[110.4869,-7.841],[110.4806,-7.8444],[110.4736,-7.8548],[110.4729,-7.8613],[110.4706,-7.8621],[110.4658,-7.8686],[110.4641,-7.8668],[110.4547,-7.8729],[110.4487,-7.8705],[110.4459,-7.8712],[110.4436,-7.8691],[110.4439,-7.8659],[110.4426,-7.8651]]]}},{"type":"Feature","properties":{"kabupaten":"Bantul","kecamatan":"Sewon"},"geometry":{"type":"Polygon","coordinates":[[[110.3766,-7.8599],[110.3786,-7.8624],[110.3788,-7.8669],[110.3814,-7.8666],[110.3796,-7.8717],[110.3821,-7.873],[110.3816,-7.8786],[110.3771,-7.8765],[110.3761,-7.8822],[110.3744,-7.8834],[110.3663,-7.8812],[110.3647,-7.8875],[110.3614,-7.8845],[110.3612,-7.8815],[110.3595,-7.8823],[110.3595,-7.886],[110.3579,-7.8867],[110.3563,-7.8861],[110.3567,-7.8822],[110.3551,-7.8818],[110.3553,-7.8856],[110.3536,-7.8855],[110.3533,-7.888],[110.351,-7.8881],[110.3481,-7.8845],[110.3479,-7.8798],[110.3404,-7.8812],[110.3366,-7.8795],[110.3366,-7.8771],[110.3338,-7.8763],[110.3304,-7.871],[110.3309,-7.8693],[110.3288,-7.869],[110.3298,-7.8661],[110.3242,-7.8614],[110.3282,-7.859],[110.3285,-7.8532],[110.3265,-7.8497],[110.3213,-7.8499],[110.3213,-7.8468],[110.3176,-7.8465],[110.3181,-7.8447],[110.3215,-7.8444],[110.3251,-7.8488],[110.3292,-7.8483],[110.3294,-7.8507],[110.3319,-7.8499],[110.3316,-7.8469],[110.3337,-7.8473],[110.3327,-7.8499],[110.3357,-7.851],[110.3351,-7.8553],[110.3379,-7.856],[110.3392,-7.8499],[110.3435,-7.8507],[110.3439,-7.8494],[110.3466,-7.8494],[110.346,-7.8468],[110.3475,-7.8421],[110.349,-7.8408],[110.3505,-7.8419],[110.3496,-7.836],[110.3527,-7.8329],[110.3519,-7.8256],[110.3664,-7.8266],[110.3661,-7.8282],[110.3674,-7.8284],[110.3693,-7.825],[110.3727,-7.8281],[110.3735,-7.825],[110.375,-7.8246],[110.3751,-7.8311],[110.3769,-7.8323],[110.3754,-7.8356],[110.3767,-7.8407],[110.3803,-7.8396],[110.3813,-7.845],[110.3804,-7.8463],[110.3816,-7.8466],[110.3801,-7.8522],[110.3753,-7.852],[110.3766,-7.8599]]]}},{"type":"Feature","properties":{"kabupaten":"Bantul","kecamatan":"Kasihan"},"geometry":{"type":"Polygon","coordinates":[[[110.332,-7.8468],[110.3319,-7.8499],[110.3294,-7.8507],[110.3292,-7.8483],[110.3251,-7.8488],[110.3223,-7.8447],[110.3181,-7.8447],[110.3176,-7.8465],[110.3213,-7.8468],[110.3213,-7.8499],[110.3265,-7.8497],[110.3285,-7.8532],[110.3282,-7.859],[110.3242,-7.8614],[110.3187,-7.8599],[110.3152,-7.8544],[110.3095,-7.8527],[110.3076,-7.8545],[110.3031,-7.8547],[110.2984,-7.8519],[110.2902,-7.8514],[110.2876,-7.8488],[110.2803,-7.8466],[110.2846,-7.8393],[110.2847,-7.8368],[110.282,-7.8343],[110.2928,-7.834],[110.2981,-7.8274],[110.3067,-7.8291],[110.3073,-7.8222],[110.3176,-7.8236],[110.3179,-7.8201],[110.3151,-7.8194],[110.3174,-7.8064],[110.3267,-7.8063],[110.3278,-7.805],[110.3298,-7.8079],[110.33,-7.805],[110.3323,-7.8033],[110.3318,-7.8006],[110.3338,-7.8],[110.3342,-7.7982],[110.3386,-7.798],[110.3398,-7.7923],[110.3436,-7.7919],[110.3444,-7.7902],[110.3475,-7.7821],[110.3489,-7.7702],[110.3509,-7.768],[110.3511,-7.7803],[110.3487,-7.7934],[110.3473,-7.7938],[110.3495,-7.795],[110.3475,-7.7952],[110.3468,-7.8024],[110.3443,-7.8075],[110.3457,-7.8114],[110.3522,-7.8124],[110.3511,-7.8145],[110.3526,-7.8163],[110.3508,-7.8214],[110.3526,-7.8236],[110.3514,-7.8252],[110.3527,-7.8329],[110.3498,-7.8354],[110.3505,-7.8419],[110.349,-7.8408],[110.3475,-7.8421],[110.346,-7.8468],[110.3466,-7.8494],[110.3439,-7.8494],[110.3435,-7.8507],[110.3392,-7.8499],[110.3379,-7.856],[110.3351,-7.8553],[110.3357,-7.851],[110.3331,-7.8505],[110.3337,-7.8473],[110.332,-7.8468]]]}},{"type":"Feature","properties":{"kabupaten":"Bantul","kecamatan":"Sedayu"},"geometry":{"type":"Polygon","coordinates":[[[110.2716,-7.8371],[110.2608,-7.8522],[110.2578,-7.8544],[110.2571,-7.858],[110.259,-7.8593],[110.2593,-7.8618],[110.2575,-7.8619],[110.2564,-7.8658],[110.2375,-7.853],[110.2325,-7.8455],[110.223,-7.8403],[110.221,-7.8363],[110.2265,-7.8341],[110.2307,-7.8301],[110.2337,-7.8231],[110.2332,-7.8149],[110.2402,-7.8063],[110.2513,-7.8035],[110.259,-7.7989],[110.2636,-7.7942],[110.2678,-7.7958],[110.2705,-7.7932],[110.2733,-7.7937],[110.2786,-7.7863],[110.2831,-7.7869],[110.2866,-7.7848],[110.2887,-7.7856],[110.2882,-7.7873],[110.2862,-7.7879],[110.2863,-7.7901],[110.2902,-7.7938],[110.2895,-7.7981],[110.2865,-7.8006],[110.2862,-7.8043],[110.2815,-7.8072],[110.2827,-7.8076],[110.2837,-7.8135],[110.282,-7.8171],[110.2851,-7.8179],[110.2876,-7.8222],[110.2851,-7.8297],[110.2876,-7.8307],[110.2885,-7.8336],[110.2812,-7.8351],[110.2788,-7.8342],[110.2773,-7.8373],[110.2716,-7.8371]]]}},{"type":"Feature","properties":{"kabupaten":"Gunungkidul","kecamatan":"Wonosari"},"geometry":{"type":"Polygon","coordinates":[[[110.5945,-8.0052],[110.5919,-8.0082],[110.5912,-8.0283],[110.5927,-8.0313],[110.5895,-8.0393],[110.5911,-8.0402],[110.5889,-8.0471],[110.5908,-8.0526],[110.5907,-8.0586],[110.5855,-8.0602],[110.5818,-8.0593],[110.578,-8.0549],[110.5718,-8.051],[110.5632,-8.0499],[110.5614,-8.0453],[110.5638,-8.035],[110.5647,-8.0333],[110.568,-8.0326],[110.57,-8.0234],[110.5728,-8.0243],[110.5726,-8.0224],[110.5705,-8.0218],[110.5717,-8.0203],[110.5699,-8.018],[110.5662,-8.0173],[110.5643,-8.014],[110.5665,-8.0122],[110.5656,-8.0095],[110.5673,-8.0069],[110.5669,-8.0048],[110.5591,-8.0006],[110.5568,-7.9972],[110.5575,-7.9953],[110.5604,-7.9953],[110.5608,-7.9884],[110.5557,-7.9884],[110.5552,-7.987],[110.5574,-7.9858],[110.5602,-7.98],[110.5533,-7.9782],[110.5502,-7.979],[110.5497,-7.9776],[110.5572,-7.9645],[110.5579,-7.9567],[110.561,-7.9582],[110.562,-7.9527],[110.5644,-7.9542],[110.564,-7.9578],[110.5653,-7.9583],[110.5793,-7.9514],[110.5864,-7.9553],[110.5893,-7.9523],[110.5873,-7.9452],[110.5822,-7.9412],[110.5838,-7.9356],[110.5837,-7.9254],[110.5813,-7.9159],[110.5792,-7.9132],[110.5814,-7.9098],[110.5833,-7.9093],[110.5855,-7.9023],[110.5877,-7.9002],[110.5881,-7.902],[110.5936,-7.9066],[110.6004,-7.9093],[110.6075,-7.9089],[110.614,-7.9157],[110.6209,-7.9165],[110.6215,-7.926],[110.6207,-7.9303],[110.6192,-7.9301],[110.6171,-7.9355],[110.6169,-7.9481],[110.615,-7.9521],[110.622,-7.9532],[110.6217,-7.9586],[110.6241,-7.96],[110.6234,-7.9654],[110.626,-7.9693],[110.6287,-7.9687],[110.6289,-7.9719],[110.6305,-7.9734],[110.6301,-7.9821],[110.6275,-7.9833],[110.6262,-7.9865],[110.6236,-7.9853],[110.6241,-7.9918],[110.6125,-7.9987],[110.6077,-8.0089],[110.5945,-8.0052]]]}},{"type":"Feature","properties":{"kabupaten":"Gunungkidul","kecamatan":"Nglipar"},"geometry":{"type":"Polygon","coordinates":[[[110.6063,-7.8505],[110.6125,-7.8479],[110.6116,-7.8428],[110.6178,-7.8403],[110.6229,-7.8362],[110.6279,-7.8354],[110.6341,-7.8308],[110.6405,-7.8298],[110.6453,-7.8266],[110.6479,-7.8205],[110.6504,-7.8226],[110.6533,-7.8206],[110.6541,-7.8246],[110.6627,-7.8249],[110.6615,-7.8356],[110.6662,-7.8408],[110.6652,-7.852],[110.6683,-7.86],[110.6677,-7.8674],[110.6702,-7.8744],[110.6774,-7.8821],[110.6811,-7.8831],[110.6804,-7.8861],[110.6827,-7.8896],[110.6848,-7.8896],[110.6841,-7.8921],[110.6799,-7.8945],[110.6799,-7.8955],[110.6832,-7.8957],[110.683,-7.8993],[110.6777,-7.8994],[110.6755,-7.9061],[110.6744,-7.9032],[110.6672,-7.9044],[110.6644,-7.9033],[110.6591,-7.9068],[110.6596,-7.9094],[110.6554,-7.9126],[110.6541,-7.9169],[110.65,-7.9173],[110.6442,-7.9169],[110.6435,-7.9144],[110.6409,-7.9132],[110.6393,-7.9146],[110.6344,-7.9132],[110.6319,-7.9095],[110.6283,-7.9105],[110.6274,-7.9149],[110.6156,-7.9165],[110.6099,-7.9125],[110.6075,-7.9089],[110.6004,-7.9093],[110.5928,-7.9061],[110.5871,-7.9004],[110.591,-7.8853],[110.5864,-7.8804],[110.5876,-7.8718],[110.5863,-7.8654],[110.5894,-7.8592],[110.599,-7.8508],[110.6063,-7.8505]],[[110.6158,-7.8818],[110.6156,-7.8816],[110.6157,-7.8818],[110.6158,-7.8818]]]}},{"type":"Feature","properties":{"kabupaten":"Gunungkidul","kecamatan":"Playen"},"geometry":{"type":"Polygon","coordinates":[[[110.5113,-7.9778],[110.5028,-7.9801],[110.5006,-7.9818],[110.4892,-7.9809],[110.4877,-7.9859],[110.4642,-7.986],[110.4633,-7.9879],[110.4645,-7.994],[110.4607,-7.9957],[110.4522,-7.9896],[110.4411,-7.9735],[110.4408,-7.9673],[110.4433,-7.967],[110.4441,-7.9654],[110.4436,-7.9515],[110.4494,-7.9469],[110.4519,-7.9475],[110.4548,-7.9515],[110.4514,-7.955],[110.4506,-7.9608],[110.4547,-7.9674],[110.4574,-7.9652],[110.4571,-7.9575],[110.4661,-7.9541],[110.4672,-7.9556],[110.4645,-7.9572],[110.4647,-7.9588],[110.4706,-7.9629],[110.4676,-7.9666],[110.4646,-7.9665],[110.4633,-7.9683],[110.4675,-7.9712],[110.4692,-7.9698],[110.4734,-7.9703],[110.4747,-7.9719],[110.4774,-7.9711],[110.4727,-7.9674],[110.4751,-7.9668],[110.476,-7.9647],[110.4726,-7.9535],[110.4781,-7.9503],[110.4762,-7.9429],[110.482,-7.9421],[110.4883,-7.945],[110.4896,-7.942],[110.4886,-7.9393],[110.4907,-7.9394],[110.4922,-7.9377],[110.4932,-7.9316],[110.4913,-7.9253],[110.4959,-7.9141],[110.4978,-7.9011],[110.4957,-7.8964],[110.4963,-7.8924],[110.4921,-7.8898],[110.4925,-7.8882],[110.502,-7.8882],[110.5009,-7.8852],[110.5108,-7.8836],[110.5131,-7.8878],[110.5148,-7.9043],[110.5136,-7.9071],[110.5151,-7.9093],[110.5213,-7.9089],[110.5253,-7.9068],[110.5263,-7.9046],[110.5244,-7.9006],[110.5287,-7.8946],[110.5316,-7.8966],[110.5341,-7.8953],[110.5402,-7.8957],[110.5481,-7.8912],[110.5541,-7.8948],[110.5599,-7.8956],[110.5613,-7.898],[110.5633,-7.8925],[110.5653,-7.8954],[110.5705,-7.8932],[110.5733,-7.8941],[110.5741,-7.8967],[110.5786,-7.8952],[110.5805,-7.8998],[110.5857,-7.9028],[110.5833,-7.9093],[110.5814,-7.9098],[110.5792,-7.9132],[110.5813,-7.9159],[110.5837,-7.9254],[110.5838,-7.9356],[110.5822,-7.9412],[110.5862,-7.9435],[110.5896,-7.9515],[110.587,-7.9552],[110.5793,-7.9514],[110.5653,-7.9583],[110.564,-7.9578],[110.5644,-7.9542],[110.562,-7.9527],[110.561,-7.9582],[110.5579,-7.9567],[110.557,-7.965],[110.5474,-7.9817],[110.5456,-7.9811],[110.5437,-7.9752],[110.5401,-7.9739],[110.5369,-7.9768],[110.5329,-7.9746],[110.5276,-7.9762],[110.5266,-7.9821],[110.5223,-7.9843],[110.5164,-7.9778],[110.5113,-7.9778]]]}},{"type":"Feature","properties":{"kabupaten":"Gunungkidul","kecamatan":"Patuk"},"geometry":{"type":"Polygon","coordinates":[[[110.5131,-7.8878],[110.5108,-7.8836],[110.5058,-7.8838],[110.5009,-7.8852],[110.502,-7.8882],[110.4951,-7.8874],[110.4915,-7.89],[110.476,-7.8898],[110.4749,-7.8848],[110.4671,-7.8698],[110.4703,-7.8625],[110.473,-7.8611],[110.4736,-7.8548],[110.4806,-7.8444],[110.4869,-7.841],[110.4886,-7.8377],[110.4942,-7.8394],[110.4972,-7.838],[110.5074,-7.8392],[110.5196,-7.8358],[110.5213,-7.8329],[110.5195,-7.8309],[110.5226,-7.8281],[110.5311,-7.8258],[110.5299,-7.8237],[110.5323,-7.8234],[110.5325,-7.8247],[110.5347,-7.8225],[110.5408,-7.8242],[110.5442,-7.8208],[110.5496,-7.822],[110.5497,-7.8195],[110.5517,-7.8181],[110.558,-7.8194],[110.5594,-7.8167],[110.5631,-7.8177],[110.5639,-7.8208],[110.5688,-7.8253],[110.571,-7.8254],[110.5683,-7.8307],[110.5657,-7.8327],[110.5714,-7.8369],[110.5714,-7.8415],[110.5687,-7.8485],[110.5696,-7.8562],[110.5667,-7.8617],[110.5662,-7.8659],[110.5677,-7.8691],[110.5628,-7.8806],[110.5618,-7.8979],[110.5599,-7.8956],[110.5541,-7.8948],[110.5481,-7.8912],[110.5402,-7.8957],[110.5341,-7.8953],[110.5316,-7.8966],[110.5287,-7.8946],[110.5244,-7.9006],[110.5263,-7.9046],[110.5253,-7.9068],[110.5213,-7.9089],[110.5151,-7.9093],[110.5136,-7.9071],[110.5148,-7.9043],[110.5131,-7.8878]]]}},{"type":"Feature","properties":{"kabupaten":"Gunungkidul","kecamatan":"Paliyan"},"geometry":{"type":"Polygon","coordinates":[[[110.5643,-8.0136],[110.5662,-8.0173],[110.5699,-8.018],[110.5717,-8.0203],[110.5705,-8.0218],[110.5725,-8.022],[110.5728,-8.0243],[110.57,-8.0234],[110.5683,-8.032],[110.5647,-8.0333],[110.562,-8.0404],[110.5614,-8.0453],[110.5632,-8.0499],[110.5593,-8.0569],[110.5587,-8.0623],[110.5609,-8.0681],[110.5611,-8.0735],[110.5587,-8.0787],[110.5593,-8.0823],[110.5544,-8.0863],[110.5476,-8.079],[110.547,-8.0622],[110.5499,-8.0568],[110.5519,-8.0466],[110.5519,-8.0417],[110.5502,-8.0412],[110.5524,-8.0376],[110.5487,-8.0284],[110.5441,-8.0332],[110.5393,-8.0342],[110.5343,-8.0308],[110.5293,-8.0354],[110.5276,-8.0422],[110.5278,-8.0529],[110.5215,-8.0546],[110.5175,-8.0501],[110.5167,-8.0396],[110.514,-8.0362],[110.5144,-8.0329],[110.5071,-8.0349],[110.5002,-8.0207],[110.4861,-8.0143],[110.4819,-8.0081],[110.4735,-7.9999],[110.4744,-7.9977],[110.4786,-7.9969],[110.4865,-7.9981],[110.4886,-7.9907],[110.4876,-7.9849],[110.4892,-7.9809],[110.5006,-7.9818],[110.5035,-7.9799],[110.5158,-7.9777],[110.5223,-7.9843],[110.5266,-7.9821],[110.5276,-7.9762],[110.5329,-7.9746],[110.5369,-7.9768],[110.5401,-7.9739],[110.5437,-7.9752],[110.5466,-7.9818],[110.5508,-7.9784],[110.5602,-7.98],[110.5552,-7.9876],[110.5608,-7.9884],[110.5604,-7.9953],[110.5575,-7.9953],[110.5568,-7.9972],[110.5586,-8.0002],[110.5669,-8.0048],[110.5673,-8.0069],[110.5656,-8.0095],[110.5665,-8.0122],[110.5643,-8.0136]],[[110.5335,-7.9939],[110.5336,-7.9939],[110.5336,-7.9938],[110.5335,-7.9939]]]}},{"type":"Feature","properties":{"kabupaten":"Gunungkidul","kecamatan":"Panggang"},"geometry":{"type":"Polygon","coordinates":[[[110.4597,-8.0638],[110.4607,-8.085],[110.4628,-8.0946],[110.4668,-8.0994],[110.4661,-8.1051],[110.4684,-8.1075],[110.4689,-8.1107],[110.4502,-8.1005],[110.4416,-8.1009],[110.4406,-8.099],[110.4386,-8.1006],[110.438,-8.0994],[110.4363,-8.1001],[110.4358,-8.0983],[110.4339,-8.0987],[110.4346,-8.0935],[110.4303,-8.0892],[110.4243,-8.087],[110.4229,-8.088],[110.4208,-8.0864],[110.4193,-8.087],[110.418,-8.0847],[110.416,-8.0844],[110.4163,-8.0826],[110.4096,-8.0814],[110.4086,-8.0792],[110.4041,-8.0799],[110.4012,-8.0778],[110.3983,-8.0788],[110.3964,-8.0768],[110.3924,-8.0764],[110.405,-8.0644],[110.4161,-8.0364],[110.4157,-8.0277],[110.4174,-8.0233],[110.412,-8.0198],[110.4077,-8.0081],[110.4032,-8.0056],[110.3985,-8.0061],[110.397,-7.9921],[110.3915,-7.9817],[110.3976,-7.9807],[110.3994,-7.9788],[110.3963,-7.9737],[110.3956,-7.9686],[110.3971,-7.9671],[110.4045,-7.9682],[110.4084,-7.9715],[110.4209,-7.9734],[110.4322,-7.9632],[110.4352,-7.9666],[110.4408,-7.9673],[110.4427,-7.9772],[110.4545,-7.9921],[110.4607,-7.9957],[110.4645,-7.994],[110.4633,-7.9879],[110.4642,-7.986],[110.4877,-7.9859],[110.4886,-7.9907],[110.4865,-7.9981],[110.4786,-7.9969],[110.4744,-7.9977],[110.4735,-8.0001],[110.4819,-8.0081],[110.4852,-8.0135],[110.4899,-8.0152],[110.4914,-8.0178],[110.476,-8.0297],[110.4784,-8.042],[110.4695,-8.056],[110.4688,-8.0634],[110.4597,-8.0638]]]}},{"type":"Feature","properties":{"kabupaten":"Gunungkidul","kecamatan":"Tepus"},"geometry":{"type":"Polygon","coordinates":[[[110.6669,-8.1285],[110.6671,-8.1345],[110.6717,-8.1392],[110.6709,-8.1444],[110.6664,-8.149],[110.6634,-8.1504],[110.6598,-8.1499],[110.6567,-8.1585],[110.6533,-8.163],[110.6525,-8.1701],[110.6444,-8.1685],[110.6368,-8.162],[110.6252,-8.1584],[110.6086,-8.1483],[110.6133,-8.1395],[110.622,-8.1338],[110.6244,-8.1255],[110.6271,-8.124],[110.632,-8.1241],[110.6344,-8.121],[110.6351,-8.1051],[110.631,-8.1026],[110.6306,-8.0976],[110.6386,-8.0926],[110.6455,-8.0921],[110.6472,-8.0903],[110.6446,-8.0845],[110.6427,-8.0842],[110.6416,-8.086],[110.6385,-8.0856],[110.636,-8.0824],[110.6319,-8.0816],[110.6301,-8.0783],[110.6379,-8.0708],[110.6355,-8.0651],[110.6277,-8.0601],[110.6305,-8.0552],[110.637,-8.0536],[110.6406,-8.0565],[110.6457,-8.0571],[110.6512,-8.0637],[110.6616,-8.0659],[110.6634,-8.07],[110.6625,-8.0744],[110.6703,-8.081],[110.676,-8.0813],[110.687,-8.0791],[110.6904,-8.0814],[110.6953,-8.0882],[110.7081,-8.0995],[110.7111,-8.1007],[110.7139,-8.105],[110.7143,-8.1121],[110.7043,-8.1228],[110.6991,-8.1237],[110.6964,-8.1214],[110.6913,-8.1209],[110.6841,-8.128],[110.6669,-8.1285]]]}},{"type":"Feature","properties":{"kabupaten":"Gunungkidul","kecamatan":"Semanu"},"geometry":{"type":"Polygon","coordinates":[[[110.6795,-8.0263],[110.684,-8.029],[110.6922,-8.0281],[110.6959,-8.0332],[110.7041,-8.0329],[110.7045,-8.0379],[110.7089,-8.0392],[110.7139,-8.0466],[110.7192,-8.0462],[110.7244,-8.0502],[110.7238,-8.0561],[110.7187,-8.061],[110.7124,-8.0712],[110.7126,-8.0761],[110.7165,-8.0804],[110.7157,-8.0854],[110.7182,-8.0969],[110.713,-8.1032],[110.6953,-8.0882],[110.6904,-8.0814],[110.687,-8.0791],[110.676,-8.0813],[110.6703,-8.081],[110.6647,-8.0772],[110.6625,-8.0744],[110.6634,-8.07],[110.6616,-8.0659],[110.65,-8.0631],[110.6458,-8.0574],[110.6437,-8.0491],[110.6385,-8.0446],[110.6275,-8.0463],[110.6188,-8.0416],[110.612,-8.0419],[110.6053,-8.0494],[110.6071,-8.0559],[110.5953,-8.0564],[110.5907,-8.0586],[110.5908,-8.0526],[110.5889,-8.0471],[110.5911,-8.0402],[110.5895,-8.0393],[110.5927,-8.0313],[110.5912,-8.0283],[110.5922,-8.0073],[110.5957,-8.0048],[110.6077,-8.0089],[110.6125,-7.9987],[110.6241,-7.9918],[110.6236,-7.9853],[110.6262,-7.9865],[110.6275,-7.9833],[110.63,-7.982],[110.6317,-7.9835],[110.6339,-7.9825],[110.6375,-7.984],[110.6391,-7.9832],[110.6423,-7.9711],[110.6531,-7.972],[110.6533,-7.9753],[110.6598,-7.9792],[110.6614,-7.9776],[110.662,-7.9821],[110.6609,-7.9823],[110.6655,-7.9825],[110.6665,-7.9762],[110.674,-7.9749],[110.6789,-7.9772],[110.6804,-7.98],[110.683,-7.9805],[110.6821,-7.9826],[110.68,-7.9832],[110.6775,-7.9808],[110.6778,-7.9842],[110.6758,-7.985],[110.6783,-7.9882],[110.6775,-7.9959],[110.6818,-7.9949],[110.6832,-7.9959],[110.6795,-8.0001],[110.6843,-8.0095],[110.6792,-8.0172],[110.6795,-8.0263]]]}},{"type":"Feature","properties":{"kabupaten":"Gunungkidul","kecamatan":"Karangmojo"},"geometry":{"type":"Polygon","coordinates":[[[110.6423,-7.9711],[110.6391,-7.9832],[110.6375,-7.984],[110.6339,-7.9825],[110.6317,-7.9835],[110.6301,-7.9821],[110.6305,-7.9734],[110.6289,-7.9719],[110.6287,-7.9687],[110.626,-7.9693],[110.6234,-7.9654],[110.6241,-7.96],[110.6217,-7.9586],[110.622,-7.9532],[110.615,-7.9521],[110.6169,-7.9481],[110.6171,-7.9355],[110.6192,-7.9301],[110.6207,-7.9303],[110.6215,-7.926],[110.6209,-7.9165],[110.6274,-7.9149],[110.6283,-7.9105],[110.6319,-7.9095],[110.6344,-7.9132],[110.6389,-7.9146],[110.6418,-7.9135],[110.645,-7.9172],[110.6541,-7.9169],[110.6554,-7.9126],[110.6596,-7.9094],[110.6591,-7.9068],[110.6644,-7.9033],[110.6672,-7.9044],[110.6744,-7.9032],[110.6755,-7.9061],[110.6777,-7.8994],[110.683,-7.8993],[110.6832,-7.8957],[110.6799,-7.8955],[110.6799,-7.8945],[110.6841,-7.8921],[110.6848,-7.8896],[110.6827,-7.8896],[110.6804,-7.8861],[110.6811,-7.8831],[110.6912,-7.8868],[110.6929,-7.8919],[110.6976,-7.8895],[110.6997,-7.8866],[110.7042,-7.8872],[110.7023,-7.8904],[110.7072,-7.8958],[110.7089,-7.9023],[110.7103,-7.903],[110.7092,-7.9112],[110.7069,-7.9131],[110.7102,-7.9168],[110.7103,-7.9229],[110.7081,-7.9241],[110.7101,-7.9344],[110.713,-7.9385],[110.7014,-7.946],[110.7004,-7.9506],[110.7028,-7.954],[110.703,-7.9661],[110.6988,-7.9701],[110.6979,-7.9742],[110.7016,-7.9737],[110.7012,-7.9792],[110.6955,-7.9783],[110.6926,-7.9801],[110.683,-7.9805],[110.6804,-7.98],[110.6789,-7.9772],[110.674,-7.9749],[110.6665,-7.9762],[110.6655,-7.9825],[110.6631,-7.9828],[110.6606,-7.982],[110.662,-7.9821],[110.6614,-7.9776],[110.6598,-7.9792],[110.6533,-7.9753],[110.6531,-7.972],[110.6423,-7.9711]]]}},{"type":"Feature","properties":{"kabupaten":"Gunungkidul","kecamatan":"Ponjong"},"geometry":{"type":"Polygon","coordinates":[[[110.7129,-8.0202],[110.7173,-8.0245],[110.7179,-8.0273],[110.71,-8.0338],[110.7055,-8.0323],[110.6959,-8.0332],[110.6922,-8.0281],[110.684,-8.029],[110.6795,-8.0263],[110.6792,-8.0172],[110.6843,-8.01],[110.6795,-8.0001],[110.6832,-7.9959],[110.6818,-7.9949],[110.6775,-7.9959],[110.6782,-7.9876],[110.6758,-7.9858],[110.6778,-7.9842],[110.6775,-7.9808],[110.68,-7.9832],[110.6849,-7.9801],[110.6926,-7.9801],[110.6955,-7.9783],[110.7012,-7.9792],[110.7016,-7.9737],[110.6979,-7.9742],[110.6988,-7.9701],[110.703,-7.9661],[110.7028,-7.954],[110.7004,-7.9506],[110.7014,-7.946],[110.713,-7.9385],[110.7101,-7.9344],[110.7081,-7.9241],[110.7103,-7.9229],[110.7102,-7.9168],[110.7069,-7.9131],[110.7092,-7.9112],[110.7102,-7.9025],[110.7137,-7.904],[110.7195,-7.9016],[110.7204,-7.9046],[110.7263,-7.9044],[110.7296,-7.9072],[110.733,-7.9062],[110.7356,-7.9032],[110.7388,-7.9027],[110.7407,-7.9071],[110.7476,-7.908],[110.7557,-7.9031],[110.765,-7.9089],[110.7703,-7.9086],[110.7693,-7.9154],[110.7721,-7.9268],[110.771,-7.9301],[110.7717,-7.9454],[110.7684,-7.9551],[110.7692,-7.9616],[110.767,-7.9873],[110.7615,-7.9972],[110.7617,-8.0035],[110.7586,-8.0084],[110.7565,-8.0182],[110.7556,-8.0247],[110.7588,-8.0342],[110.7479,-8.0345],[110.7437,-8.0379],[110.7362,-8.0341],[110.7286,-8.0386],[110.7275,-8.0369],[110.7276,-8.0283],[110.7296,-8.0253],[110.7289,-8.0223],[110.7261,-8.0219],[110.7233,-8.0166],[110.7131,-8.0187],[110.7129,-8.0202]]]}},{"type":"Feature","properties":{"kabupaten":"Gunungkidul","kecamatan":"Rongkop"},"geometry":{"type":"Polygon","coordinates":[[[110.7577,-8.1157],[110.7553,-8.1243],[110.7556,-8.1419],[110.751,-8.1455],[110.7479,-8.1443],[110.7483,-8.1424],[110.7462,-8.1409],[110.7417,-8.1453],[110.7441,-8.138],[110.7383,-8.1311],[110.7336,-8.1312],[110.7298,-8.1383],[110.7176,-8.1436],[110.7117,-8.1414],[110.7135,-8.1392],[110.7137,-8.1333],[110.7055,-8.1312],[110.7004,-8.1264],[110.6974,-8.1266],[110.7001,-8.1233],[110.705,-8.1223],[110.714,-8.1126],[110.7147,-8.1085],[110.713,-8.1032],[110.7182,-8.0975],[110.7178,-8.0909],[110.7157,-8.0854],[110.7165,-8.0804],[110.7126,-8.0761],[110.7124,-8.0712],[110.7187,-8.061],[110.7238,-8.0561],[110.7244,-8.0502],[110.7192,-8.0462],[110.7139,-8.0466],[110.7089,-8.0392],[110.7051,-8.0384],[110.7038,-8.0362],[110.7041,-8.0329],[110.7114,-8.0333],[110.7131,-8.0304],[110.7177,-8.0277],[110.7173,-8.0245],[110.7133,-8.0216],[110.7131,-8.0187],[110.7233,-8.0166],[110.7261,-8.0219],[110.7289,-8.0223],[110.7296,-8.0253],[110.7276,-8.0283],[110.7275,-8.0369],[110.7286,-8.0386],[110.7362,-8.0341],[110.7437,-8.0379],[110.7479,-8.0345],[110.7604,-8.0351],[110.7681,-8.0467],[110.7702,-8.0546],[110.7785,-8.0676],[110.7796,-8.0757],[110.7788,-8.0842],[110.783,-8.0907],[110.7876,-8.1032],[110.7898,-8.1258],[110.7876,-8.1304],[110.781,-8.1312],[110.7776,-8.1331],[110.7715,-8.1308],[110.7722,-8.127],[110.7752,-8.1241],[110.7727,-8.1196],[110.7577,-8.1157]],[[110.7623,-8.0945],[110.7625,-8.0944],[110.7623,-8.0944],[110.7623,-8.0945]]]}},{"type":"Feature","properties":{"kabupaten":"Gunungkidul","kecamatan":"Semin"},"geometry":{"type":"Polygon","coordinates":[[[110.7854,-7.8528],[110.7843,-7.861],[110.7827,-7.8626],[110.7842,-7.8663],[110.783,-7.8669],[110.7842,-7.8695],[110.783,-7.8713],[110.7837,-7.8739],[110.7776,-7.879],[110.7756,-7.8868],[110.7778,-7.8919],[110.777,-7.8941],[110.7743,-7.8955],[110.7711,-7.902],[110.7703,-7.9086],[110.765,-7.9089],[110.7557,-7.9031],[110.7476,-7.908],[110.7407,-7.9071],[110.7388,-7.9027],[110.7356,-7.9032],[110.733,-7.9062],[110.7296,-7.9072],[110.7263,-7.9044],[110.7204,-7.9046],[110.7195,-7.9016],[110.7137,-7.904],[110.712,-7.9024],[110.7089,-7.9023],[110.7072,-7.8958],[110.7023,-7.8904],[110.7042,-7.888],[110.7028,-7.8863],[110.6997,-7.8866],[110.6976,-7.8895],[110.6929,-7.8919],[110.6912,-7.8896],[110.6917,-7.8769],[110.6937,-7.8744],[110.6979,-7.8731],[110.696,-7.8715],[110.6984,-7.8662],[110.6981,-7.859],[110.7004,-7.8546],[110.6991,-7.8513],[110.7026,-7.8475],[110.7052,-7.8485],[110.7064,-7.846],[110.7047,-7.8365],[110.709,-7.8251],[110.7104,-7.8234],[110.7152,-7.8248],[110.7199,-7.822],[110.7238,-7.8219],[110.7317,-7.8244],[110.7312,-7.8315],[110.7356,-7.8317],[110.7385,-7.8263],[110.735,-7.8186],[110.738,-7.8178],[110.7418,-7.8139],[110.7424,-7.8065],[110.7509,-7.8147],[110.7517,-7.8229],[110.7532,-7.8246],[110.7634,-7.824],[110.7641,-7.8192],[110.7626,-7.818],[110.7626,-7.8154],[110.7649,-7.8135],[110.7633,-7.8129],[110.7639,-7.8108],[110.7703,-7.8079],[110.7738,-7.8092],[110.7754,-7.8107],[110.7754,-7.8136],[110.7783,-7.8153],[110.78,-7.8137],[110.7856,-7.8168],[110.7849,-7.8266],[110.7831,-7.8299],[110.7826,-7.8462],[110.7847,-7.8473],[110.7836,-7.849],[110.7845,-7.8505],[110.7831,-7.8514],[110.7854,-7.8528]],[[110.7122,-7.8516],[110.7123,-7.8516],[110.7122,-7.8514],[110.7122,-7.8516]]]}},{"type":"Feature","properties":{"kabupaten":"Gunungkidul","kecamatan":"Ngawen"},"geometry":{"type":"Polygon","coordinates":[[[110.698,-7.8602],[110.6984,-7.8662],[110.696,-7.8715],[110.6979,-7.8731],[110.6937,-7.8744],[110.6917,-7.8769],[110.6912,-7.8868],[110.6779,-7.8824],[110.6702,-7.8744],[110.6676,-7.8669],[110.6676,-7.8567],[110.6652,-7.852],[110.6661,-7.8403],[110.6615,-7.8356],[110.6631,-7.8256],[110.6541,-7.8246],[110.6531,-7.8219],[110.6588,-7.8084],[110.6577,-7.8048],[110.6605,-7.8021],[110.664,-7.7931],[110.6667,-7.7929],[110.6706,-7.7859],[110.6742,-7.7876],[110.6766,-7.7913],[110.6723,-7.796],[110.6728,-7.7992],[110.6777,-7.8016],[110.6818,-7.8065],[110.6923,-7.8083],[110.7089,-7.8052],[110.7143,-7.7991],[110.7118,-7.7914],[110.7131,-7.79],[110.7234,-7.7928],[110.7428,-7.8071],[110.7418,-7.8139],[110.738,-7.8178],[110.735,-7.8186],[110.7385,-7.8263],[110.7356,-7.8317],[110.7312,-7.8315],[110.732,-7.8248],[110.7301,-7.8236],[110.7216,-7.8216],[110.7169,-7.8245],[110.7101,-7.8237],[110.7047,-7.8365],[110.7064,-7.846],[110.7052,-7.8485],[110.7026,-7.8475],[110.6991,-7.8513],[110.7004,-7.8546],[110.698,-7.8602]]]}},{"type":"Feature","properties":{"kabupaten":"Gunungkidul","kecamatan":"Gedangsari"},"geometry":{"type":"Polygon","coordinates":[[[110.599,-7.8508],[110.5894,-7.8592],[110.5863,-7.8654],[110.5876,-7.8718],[110.5864,-7.8804],[110.591,-7.8853],[110.5886,-7.8971],[110.586,-7.9019],[110.5838,-7.9024],[110.581,-7.9003],[110.5781,-7.895],[110.5749,-7.8968],[110.5719,-7.8933],[110.5653,-7.8954],[110.5638,-7.8926],[110.5622,-7.8935],[110.5628,-7.8806],[110.5677,-7.8691],[110.5662,-7.8659],[110.5667,-7.8617],[110.5696,-7.8562],[110.5687,-7.8485],[110.5714,-7.8415],[110.5714,-7.8369],[110.5657,-7.8327],[110.5683,-7.8307],[110.571,-7.8254],[110.5688,-7.8253],[110.5639,-7.8208],[110.564,-7.8188],[110.562,-7.817],[110.5594,-7.8167],[110.558,-7.8194],[110.5517,-7.8181],[110.5497,-7.8195],[110.5496,-7.822],[110.547,-7.8209],[110.5426,-7.8217],[110.542,-7.8198],[110.5455,-7.8158],[110.5451,-7.8112],[110.5463,-7.8099],[110.5445,-7.8055],[110.5458,-7.8015],[110.5489,-7.7986],[110.5489,-7.7929],[110.5499,-7.7917],[110.5512,-7.7947],[110.5554,-7.7942],[110.5563,-7.7928],[110.5535,-7.7879],[110.5554,-7.7868],[110.5559,-7.7841],[110.565,-7.782],[110.5779,-7.7896],[110.5822,-7.7894],[110.5814,-7.7947],[110.5841,-7.7963],[110.5841,-7.7981],[110.5764,-7.8017],[110.5758,-7.8049],[110.5797,-7.8058],[110.5864,-7.8027],[110.5884,-7.805],[110.5859,-7.8083],[110.5945,-7.8059],[110.5998,-7.8066],[110.6006,-7.8049],[110.5988,-7.7999],[110.604,-7.7982],[110.6109,-7.7982],[110.6161,-7.8016],[110.6195,-7.7988],[110.6233,-7.8002],[110.6253,-7.8034],[110.632,-7.7975],[110.6334,-7.7986],[110.6319,-7.8007],[110.6332,-7.8011],[110.6392,-7.8],[110.6498,-7.7933],[110.6517,-7.7933],[110.6546,-7.7961],[110.6554,-7.8023],[110.6589,-7.8079],[110.6533,-7.8206],[110.6504,-7.8226],[110.6479,-7.8205],[110.647,-7.8245],[110.6423,-7.8287],[110.6341,-7.8308],[110.6279,-7.8354],[110.6229,-7.8362],[110.6178,-7.8403],[110.6116,-7.8428],[110.6125,-7.8479],[110.6058,-7.8508],[110.599,-7.8508]]]}},{"type":"Feature","properties":{"kabupaten":"Gunungkidul","kecamatan":"Saptosari"},"geometry":{"type":"Polygon","coordinates":[[[110.5461,-8.0623],[110.5482,-8.0809],[110.5544,-8.0863],[110.5593,-8.0823],[110.5596,-8.0837],[110.5582,-8.0984],[110.5435,-8.122],[110.5444,-8.1252],[110.5479,-8.1289],[110.5461,-8.1323],[110.5448,-8.1319],[110.5456,-8.1352],[110.5351,-8.1313],[110.5344,-8.1298],[110.5325,-8.1315],[110.5304,-8.1302],[110.5292,-8.1318],[110.5274,-8.1314],[110.5276,-8.1296],[110.5254,-8.1301],[110.5263,-8.1289],[110.5242,-8.1278],[110.5226,-8.1288],[110.5215,-8.1259],[110.5166,-8.125],[110.5162,-8.1228],[110.514,-8.1233],[110.5144,-8.1214],[110.5124,-8.124],[110.5095,-8.1211],[110.5063,-8.121],[110.5029,-8.1186],[110.4967,-8.118],[110.4959,-8.1166],[110.4912,-8.1172],[110.4891,-8.1139],[110.4857,-8.1135],[110.4857,-8.1121],[110.4815,-8.1123],[110.4763,-8.1099],[110.4721,-8.1107],[110.4662,-8.1055],[110.467,-8.1001],[110.4628,-8.0946],[110.4608,-8.0857],[110.4609,-8.0744],[110.4593,-8.0646],[110.4618,-8.063],[110.469,-8.0631],[110.4695,-8.056],[110.4784,-8.042],[110.476,-8.0297],[110.4912,-8.0184],[110.4907,-8.0162],[110.5002,-8.0207],[110.5071,-8.0349],[110.5144,-8.0329],[110.514,-8.0362],[110.5167,-8.0396],[110.5175,-8.0501],[110.5226,-8.0549],[110.5278,-8.0529],[110.5276,-8.0422],[110.5293,-8.0354],[110.5343,-8.0308],[110.5393,-8.0342],[110.5441,-8.0332],[110.5487,-8.0284],[110.5524,-8.0376],[110.5502,-8.0412],[110.5519,-8.0417],[110.5519,-8.0466],[110.5499,-8.0568],[110.5488,-8.06],[110.5461,-8.0623]]]}},{"type":"Feature","properties":{"kabupaten":"Gunungkidul","kecamatan":"Girisubo"},"geometry":{"type":"MultiPolygon","coordinates":[[[[110.7621,-8.1953],[110.755,-8.1974],[110.7544,-8.1954],[110.7528,-8.1953],[110.7483,-8.1972],[110.7373,-8.1926],[110.7301,-8.1941],[110.7352,-8.1847],[110.7401,-8.1815],[110.7373,-8.1699],[110.7333,-8.1697],[110.7311,-8.1659],[110.7283,-8.1673],[110.7267,-8.1646],[110.7302,-8.1621],[110.7279,-8.1586],[110.732,-8.1558],[110.7283,-8.1521],[110.7284,-8.1475],[110.73,-8.1448],[110.7358,-8.1427],[110.7396,-8.1377],[110.7424,-8.1368],[110.7442,-8.1386],[110.7418,-8.1424],[110.7417,-8.1453],[110.7462,-8.1409],[110.7483,-8.1424],[110.7479,-8.1443],[110.7505,-8.1455],[110.7555,-8.1422],[110.7553,-8.1243],[110.7577,-8.1157],[110.7735,-8.1202],[110.7751,-8.125],[110.7722,-8.127],[110.7715,-8.1308],[110.7733,-8.132],[110.7781,-8.1331],[110.781,-8.1312],[110.7876,-8.1304],[110.7859,-8.139],[110.7857,-8.1488],[110.7869,-8.1528],[110.7903,-8.1583],[110.7933,-8.1605],[110.7975,-8.1622],[110.8005,-8.1614],[110.7996,-8.1667],[110.8041,-8.169],[110.8061,-8.1728],[110.7998,-8.1882],[110.7948,-8.1931],[110.7907,-8.1926],[110.7892,-8.1941],[110.7872,-8.1925],[110.7812,-8.1964],[110.7761,-8.1956],[110.7737,-8.1968],[110.7728,-8.1953],[110.7666,-8.1968],[110.7621,-8.1953]]],[[[110.71,-8.1427],[110.7066,-8.1534],[110.7105,-8.155],[110.7108,-8.166],[110.7081,-8.1787],[110.7114,-8.1857],[110.7099,-8.1866],[110.7062,-8.1833],[110.7043,-8.186],[110.7014,-8.1846],[110.7002,-8.1872],[110.6995,-8.1858],[110.6909,-8.1871],[110.6888,-8.1857],[110.6887,-8.1803],[110.6911,-8.1785],[110.6922,-8.1722],[110.6945,-8.1708],[110.6963,-8.1661],[110.696,-8.1642],[110.6914,-8.1619],[110.6933,-8.1585],[110.6924,-8.1455],[110.6952,-8.1407],[110.6958,-8.136],[110.698,-8.1335],[110.6974,-8.1266],[110.7004,-8.1264],[110.7055,-8.1312],[110.7142,-8.1338],[110.7135,-8.1392],[110.71,-8.1427]]]]}},{"type":"Feature","properties":{"kabupaten":"Gunungkidul","kecamatan":"Tanjungsari"},"geometry":{"type":"MultiPolygon","coordinates":[[[[110.6385,-8.0446],[110.6446,-8.0512],[110.6457,-8.0571],[110.6406,-8.0565],[110.6363,-8.0536],[110.6305,-8.0552],[110.6277,-8.0601],[110.6362,-8.0662],[110.6379,-8.0708],[110.6354,-8.0737],[110.6291,-8.0697],[110.6116,-8.0652],[110.6074,-8.0591],[110.6071,-8.0528],[110.6054,-8.0513],[110.6061,-8.0476],[110.613,-8.0417],[110.6188,-8.0416],[110.6275,-8.0463],[110.6385,-8.0446]]],[[[110.5812,-8.0586],[110.5861,-8.0602],[110.5961,-8.0564],[110.5992,-8.0626],[110.5979,-8.0692],[110.588,-8.071],[110.5879,-8.0752],[110.5825,-8.0866],[110.575,-8.0859],[110.5596,-8.0757],[110.5613,-8.0715],[110.5587,-8.0623],[110.5593,-8.0569],[110.5632,-8.0499],[110.5718,-8.051],[110.5812,-8.0586]]]]}},{"type":"Feature","properties":{"kabupaten":"Gunungkidul","kecamatan":"Purwosari"},"geometry":{"type":"Polygon","coordinates":[[[110.3988,-8.006],[110.4032,-8.0056],[110.4077,-8.0081],[110.412,-8.0198],[110.4174,-8.0233],[110.4157,-8.0277],[110.4161,-8.0364],[110.405,-8.0644],[110.3924,-8.0764],[110.3872,-8.0725],[110.3752,-8.0716],[110.368,-8.061],[110.3638,-8.0601],[110.3546,-8.0518],[110.3481,-8.0409],[110.3445,-8.0304],[110.3399,-8.0282],[110.3359,-8.0222],[110.3306,-8.0057],[110.3319,-7.9977],[110.3391,-7.9924],[110.3525,-7.9932],[110.3531,-7.9876],[110.3506,-7.9899],[110.3494,-7.9884],[110.3502,-7.984],[110.3527,-7.9808],[110.348,-7.9742],[110.3504,-7.9744],[110.3528,-7.9784],[110.3553,-7.9781],[110.3581,-7.9818],[110.3605,-7.9824],[110.363,-7.9815],[110.3656,-7.9724],[110.3739,-7.9793],[110.3858,-7.9794],[110.3915,-7.9812],[110.397,-7.9921],[110.3988,-8.006]]]}},{"type":"Feature","properties":{"kabupaten":"Sleman","kecamatan":"Gamping"},"geometry":{"type":"Polygon","coordinates":[[[110.3067,-7.8291],[110.2973,-7.8281],[110.2928,-7.834],[110.2887,-7.8339],[110.2876,-7.8307],[110.2851,-7.8297],[110.2876,-7.8222],[110.2851,-7.8179],[110.282,-7.8171],[110.2837,-7.8135],[110.2815,-7.8068],[110.2862,-7.8043],[110.2865,-7.8006],[110.2895,-7.7981],[110.2895,-7.7949],[110.292,-7.7947],[110.2943,-7.7912],[110.2954,-7.7937],[110.2932,-7.7953],[110.2958,-7.7953],[110.2964,-7.7974],[110.2992,-7.7979],[110.2997,-7.7965],[110.2992,-7.7996],[110.3015,-7.8],[110.3027,-7.7912],[110.3082,-7.7914],[110.31,-7.7937],[110.316,-7.7926],[110.3169,-7.7877],[110.3183,-7.7876],[110.3185,-7.7817],[110.3203,-7.7835],[110.3261,-7.7838],[110.3262,-7.7815],[110.3286,-7.7803],[110.3269,-7.778],[110.3291,-7.7775],[110.3277,-7.7745],[110.33,-7.7742],[110.328,-7.7688],[110.3293,-7.7681],[110.3287,-7.7636],[110.3305,-7.7576],[110.3326,-7.7577],[110.3337,-7.7526],[110.3367,-7.7513],[110.3372,-7.7471],[110.3409,-7.7465],[110.3427,-7.7436],[110.3454,-7.7426],[110.3448,-7.7393],[110.3495,-7.7347],[110.3542,-7.738],[110.3551,-7.7403],[110.3523,-7.749],[110.3528,-7.759],[110.351,-7.7598],[110.3512,-7.7657],[110.3528,-7.7673],[110.3535,-7.7718],[110.3521,-7.7719],[110.3509,-7.768],[110.3489,-7.7702],[110.3475,-7.7821],[110.3438,-7.7916],[110.3398,-7.7923],[110.3386,-7.798],[110.3342,-7.7982],[110.3338,-7.8],[110.3318,-7.8006],[110.3323,-7.8033],[110.33,-7.805],[110.3298,-7.8079],[110.3278,-7.805],[110.3267,-7.8063],[110.3174,-7.8064],[110.3151,-7.8194],[110.3179,-7.8201],[110.3176,-7.8236],[110.3073,-7.8222],[110.3067,-7.8291]]]}},{"type":"Feature","properties":{"kabupaten":"Sleman","kecamatan":"Godean"},"geometry":{"type":"Polygon","coordinates":[[[110.3027,-7.7912],[110.3015,-7.8],[110.2992,-7.7996],[110.2997,-7.7965],[110.2992,-7.7979],[110.2964,-7.7974],[110.2958,-7.7953],[110.2932,-7.7953],[110.2954,-7.7937],[110.2955,-7.7917],[110.2943,-7.7912],[110.292,-7.7947],[110.2902,-7.794],[110.2863,-7.7901],[110.2862,-7.7879],[110.2882,-7.7873],[110.2887,-7.7856],[110.2862,-7.7847],[110.2882,-7.7822],[110.2846,-7.7803],[110.2819,-7.7821],[110.2739,-7.7796],[110.274,-7.7774],[110.2709,-7.7751],[110.2717,-7.7721],[110.2701,-7.772],[110.2715,-7.768],[110.2698,-7.7677],[110.2685,-7.7719],[110.2662,-7.7716],[110.2667,-7.7763],[110.2656,-7.7764],[110.264,-7.7686],[110.2628,-7.7684],[110.265,-7.761],[110.2636,-7.7607],[110.2655,-7.7536],[110.2667,-7.7543],[110.2711,-7.7455],[110.2683,-7.7446],[110.2666,-7.7465],[110.2647,-7.7444],[110.2656,-7.7431],[110.2638,-7.7393],[110.2661,-7.7352],[110.2643,-7.7349],[110.2699,-7.7349],[110.2742,-7.7379],[110.2781,-7.7378],[110.2778,-7.7423],[110.2819,-7.7462],[110.2819,-7.7501],[110.2834,-7.7512],[110.286,-7.7492],[110.2868,-7.7521],[110.2889,-7.7533],[110.2898,-7.7564],[110.2884,-7.7576],[110.29,-7.7581],[110.2904,-7.7613],[110.2915,-7.7618],[110.2925,-7.7585],[110.2972,-7.7593],[110.298,-7.7567],[110.3005,-7.756],[110.307,-7.7585],[110.3053,-7.761],[110.3055,-7.7647],[110.3077,-7.7674],[110.3097,-7.7629],[110.3137,-7.7599],[110.3122,-7.7581],[110.3141,-7.7537],[110.3135,-7.7519],[110.3157,-7.7513],[110.3153,-7.7452],[110.3177,-7.7473],[110.3208,-7.7469],[110.3237,-7.7435],[110.3229,-7.747],[110.3245,-7.7468],[110.3247,-7.7521],[110.3223,-7.7581],[110.3247,-7.7641],[110.3294,-7.7655],[110.3293,-7.7681],[110.328,-7.7688],[110.33,-7.7742],[110.3279,-7.7742],[110.3291,-7.7775],[110.3269,-7.778],[110.3284,-7.7808],[110.3262,-7.7815],[110.3256,-7.7839],[110.3203,-7.7835],[110.3185,-7.7817],[110.3183,-7.7876],[110.3169,-7.7877],[110.316,-7.7926],[110.31,-7.7937],[110.3082,-7.7914],[110.3027,-7.7912]]]}},{"type":"Feature","properties":{"kabupaten":"Sleman","kecamatan":"Moyudan"},"geometry":{"type":"Polygon","coordinates":[[[110.2636,-7.7942],[110.2513,-7.8035],[110.2402,-7.8063],[110.2332,-7.8149],[110.2323,-7.81],[110.2283,-7.8056],[110.2299,-7.8031],[110.2351,-7.8004],[110.236,-7.7983],[110.2325,-7.7904],[110.229,-7.7888],[110.228,-7.7851],[110.22,-7.7764],[110.2218,-7.7732],[110.2224,-7.7672],[110.2218,-7.7648],[110.2195,-7.7635],[110.222,-7.7599],[110.2187,-7.7586],[110.2195,-7.7538],[110.2269,-7.7525],[110.2573,-7.7597],[110.2631,-7.7392],[110.2658,-7.7459],[110.2666,-7.7465],[110.2683,-7.7446],[110.2711,-7.7455],[110.2667,-7.7543],[110.2655,-7.7536],[110.2636,-7.7607],[110.265,-7.761],[110.2628,-7.7684],[110.264,-7.7686],[110.2656,-7.7764],[110.2667,-7.7763],[110.2662,-7.7716],[110.2685,-7.7719],[110.2698,-7.7677],[110.2715,-7.768],[110.2701,-7.772],[110.2717,-7.7721],[110.2709,-7.7751],[110.274,-7.7774],[110.2739,-7.7796],[110.2819,-7.7821],[110.2846,-7.7803],[110.2882,-7.7822],[110.2831,-7.7869],[110.2786,-7.7863],[110.2733,-7.7937],[110.2705,-7.7932],[110.2678,-7.7958],[110.2636,-7.7942]]]}},{"type":"Feature","properties":{"kabupaten":"Sleman","kecamatan":"Minggir"},"geometry":{"type":"Polygon","coordinates":[[[110.2631,-7.7392],[110.2573,-7.7597],[110.2269,-7.7525],[110.2195,-7.7538],[110.2177,-7.7517],[110.2193,-7.7472],[110.2159,-7.7417],[110.2165,-7.7383],[110.2215,-7.7338],[110.2249,-7.7235],[110.2318,-7.7226],[110.2325,-7.7138],[110.253,-7.7086],[110.2562,-7.7052],[110.2594,-7.7042],[110.2678,-7.7073],[110.2701,-7.7095],[110.2745,-7.7092],[110.2761,-7.7125],[110.2769,-7.7109],[110.2819,-7.7112],[110.2788,-7.7174],[110.2746,-7.7151],[110.2731,-7.7158],[110.2739,-7.7172],[110.2718,-7.7249],[110.2752,-7.725],[110.2762,-7.7227],[110.2778,-7.7234],[110.2785,-7.722],[110.2805,-7.7228],[110.2794,-7.7253],[110.2812,-7.727],[110.2806,-7.7292],[110.2792,-7.7294],[110.279,-7.7346],[110.2752,-7.738],[110.2699,-7.7349],[110.2643,-7.7349],[110.2661,-7.7352],[110.2638,-7.7393],[110.2648,-7.7406],[110.2631,-7.7392]]]}},{"type":"Feature","properties":{"kabupaten":"Sleman","kecamatan":"Seyegan"},"geometry":{"type":"Polygon","coordinates":[[[110.3058,-7.7416],[110.3082,-7.7416],[110.3086,-7.7469],[110.3124,-7.744],[110.3153,-7.7452],[110.3157,-7.7513],[110.3135,-7.7519],[110.3141,-7.7537],[110.3122,-7.7581],[110.3137,-7.7599],[110.3097,-7.7629],[110.3082,-7.7674],[110.3055,-7.7647],[110.3053,-7.761],[110.3074,-7.759],[110.3042,-7.7569],[110.298,-7.7567],[110.2972,-7.7593],[110.2925,-7.7585],[110.2915,-7.7618],[110.2904,-7.7613],[110.29,-7.7581],[110.2884,-7.7576],[110.2898,-7.7564],[110.2889,-7.7533],[110.2868,-7.7521],[110.286,-7.7492],[110.2828,-7.7512],[110.2819,-7.7462],[110.2778,-7.7423],[110.2784,-7.7382],[110.2757,-7.7378],[110.2799,-7.7326],[110.2792,-7.7294],[110.2806,-7.7292],[110.2812,-7.727],[110.2794,-7.7253],[110.2805,-7.7228],[110.2785,-7.722],[110.2778,-7.7234],[110.2762,-7.7227],[110.2752,-7.725],[110.2718,-7.7249],[110.2739,-7.7172],[110.2731,-7.7158],[110.2746,-7.7151],[110.2788,-7.7174],[110.2819,-7.7112],[110.2769,-7.7109],[110.2761,-7.7125],[110.2745,-7.7092],[110.2827,-7.7102],[110.2878,-7.7077],[110.2905,-7.7083],[110.2921,-7.7028],[110.296,-7.7037],[110.2984,-7.7016],[110.2969,-7.6994],[110.2999,-7.6986],[110.3038,-7.6945],[110.3053,-7.6965],[110.3075,-7.6952],[110.3097,-7.6987],[110.3123,-7.6986],[110.3144,-7.6964],[110.3265,-7.7],[110.3242,-7.7046],[110.3261,-7.7068],[110.3254,-7.7078],[110.3238,-7.7071],[110.3221,-7.7104],[110.3244,-7.7168],[110.3223,-7.7244],[110.3199,-7.7235],[110.3181,-7.7307],[110.3117,-7.7358],[110.3109,-7.7379],[110.3089,-7.7372],[110.3094,-7.7353],[110.3083,-7.735],[110.3071,-7.7381],[110.3051,-7.736],[110.3045,-7.7394],[110.3058,-7.7416]]]}},{"type":"Feature","properties":{"kabupaten":"Sleman","kecamatan":"Mlati"},"geometry":{"type":"Polygon","coordinates":[[[110.3834,-7.7447],[110.3839,-7.7473],[110.3872,-7.7485],[110.384,-7.7539],[110.3814,-7.7535],[110.382,-7.7516],[110.3783,-7.7519],[110.3774,-7.7568],[110.3817,-7.7585],[110.38,-7.7625],[110.3774,-7.7622],[110.3754,-7.7665],[110.3717,-7.7663],[110.3701,-7.7697],[110.3681,-7.7693],[110.3669,-7.7717],[110.3666,-7.7703],[110.3647,-7.7701],[110.3652,-7.7685],[110.3557,-7.7688],[110.3513,-7.766],[110.351,-7.7598],[110.3527,-7.7594],[110.3533,-7.7558],[110.3523,-7.749],[110.3551,-7.7403],[110.3542,-7.738],[110.3495,-7.7347],[110.3448,-7.7393],[110.3454,-7.7426],[110.3427,-7.7436],[110.3409,-7.7465],[110.3372,-7.7471],[110.3367,-7.7513],[110.3337,-7.7526],[110.3326,-7.7577],[110.3305,-7.7576],[110.329,-7.7645],[110.3271,-7.7654],[110.3247,-7.7641],[110.3223,-7.7581],[110.3247,-7.7521],[110.3245,-7.7468],[110.3229,-7.747],[110.3237,-7.7435],[110.3208,-7.7469],[110.3177,-7.7473],[110.3128,-7.744],[110.3086,-7.7469],[110.3082,-7.7416],[110.3054,-7.7415],[110.3045,-7.7394],[110.3051,-7.736],[110.3071,-7.7381],[110.3083,-7.735],[110.3094,-7.7353],[110.3089,-7.7372],[110.3109,-7.7379],[110.3117,-7.7358],[110.3181,-7.7307],[110.3199,-7.7235],[110.3223,-7.7244],[110.3242,-7.7187],[110.3231,-7.7154],[110.3239,-7.7134],[110.3221,-7.7104],[110.3238,-7.7071],[110.3254,-7.7078],[110.3261,-7.7068],[110.3242,-7.7046],[110.3252,-7.7017],[110.3296,-7.7049],[110.3294,-7.7032],[110.3317,-7.7004],[110.3347,-7.7012],[110.3316,-7.7099],[110.3333,-7.7106],[110.3346,-7.7073],[110.3358,-7.7081],[110.3363,-7.7067],[110.3391,-7.7062],[110.3402,-7.7132],[110.3421,-7.7149],[110.3439,-7.7133],[110.3454,-7.7154],[110.3447,-7.7223],[110.3462,-7.7228],[110.3488,-7.7201],[110.3502,-7.7214],[110.3556,-7.7216],[110.3532,-7.726],[110.354,-7.7279],[110.3555,-7.7286],[110.3583,-7.7221],[110.364,-7.7247],[110.3667,-7.7192],[110.3711,-7.7221],[110.3733,-7.7219],[110.3713,-7.7281],[110.3754,-7.7281],[110.3755,-7.7342],[110.3669,-7.7394],[110.3679,-7.7405],[110.3662,-7.7433],[110.3698,-7.7433],[110.3682,-7.7478],[110.3718,-7.7492],[110.3696,-7.7522],[110.3679,-7.7524],[110.3681,-7.7543],[110.3741,-7.7542],[110.3767,-7.7496],[110.3784,-7.7491],[110.3801,-7.7445],[110.3834,-7.7447]]]}},{"type":"Feature","properties":{"kabupaten":"Sleman","kecamatan":"Depok"},"geometry":{"type":"Polygon","coordinates":[[[110.4148,-7.7565],[110.4165,-7.7509],[110.4269,-7.7532],[110.4276,-7.7512],[110.4335,-7.7513],[110.433,-7.7458],[110.4355,-7.7457],[110.4343,-7.7434],[110.4367,-7.7437],[110.4363,-7.745],[110.4379,-7.7458],[110.4395,-7.7451],[110.4399,-7.7464],[110.4474,-7.7468],[110.4484,-7.7508],[110.4467,-7.7572],[110.4436,-7.7604],[110.4441,-7.7665],[110.4437,-7.7677],[110.4411,-7.767],[110.4401,-7.7698],[110.4403,-7.7749],[110.4385,-7.7812],[110.441,-7.7903],[110.4379,-7.793],[110.4397,-7.8011],[110.4378,-7.8042],[110.429,-7.8035],[110.4285,-7.8054],[110.4268,-7.8054],[110.4224,-7.8033],[110.4229,-7.7963],[110.4203,-7.7917],[110.4214,-7.7907],[110.4208,-7.7864],[110.4094,-7.7874],[110.4092,-7.7863],[110.4066,-7.7876],[110.4063,-7.7855],[110.4037,-7.7879],[110.3984,-7.7883],[110.3986,-7.7855],[110.3959,-7.7885],[110.3921,-7.7855],[110.3888,-7.7801],[110.3693,-7.7745],[110.3691,-7.77],[110.3714,-7.7665],[110.3754,-7.7665],[110.3765,-7.7632],[110.38,-7.7625],[110.3812,-7.7599],[110.3817,-7.7585],[110.3774,-7.7568],[110.3783,-7.7519],[110.382,-7.7516],[110.3814,-7.7535],[110.384,-7.7539],[110.3872,-7.7485],[110.3839,-7.7473],[110.384,-7.7448],[110.3808,-7.7438],[110.3822,-7.7401],[110.3847,-7.7387],[110.3853,-7.7353],[110.3861,-7.7379],[110.3883,-7.7382],[110.3872,-7.7411],[110.3901,-7.7439],[110.3945,-7.7452],[110.395,-7.7492],[110.3936,-7.7521],[110.3947,-7.7523],[110.396,-7.7498],[110.3972,-7.75],[110.3968,-7.7376],[110.3992,-7.7328],[110.4012,-7.7324],[110.4024,-7.7424],[110.4043,-7.7396],[110.4068,-7.741],[110.4063,-7.7452],[110.404,-7.7459],[110.4032,-7.7492],[110.4076,-7.75],[110.409,-7.7473],[110.412,-7.7491],[110.4121,-7.752],[110.4141,-7.7537],[110.4127,-7.7541],[110.4134,-7.7563],[110.4141,-7.7551],[110.4148,-7.7565]]]}},{"type":"Feature","properties":{"kabupaten":"Sleman","kecamatan":"Berbah"},"geometry":{"type":"Polygon","coordinates":[[[110.4443,-7.8278],[110.4364,-7.8294],[110.4341,-7.835],[110.4354,-7.8366],[110.4299,-7.8373],[110.4299,-7.8319],[110.4311,-7.8321],[110.4315,-7.8303],[110.4285,-7.8298],[110.4261,-7.827],[110.4283,-7.8216],[110.4268,-7.8231],[110.4214,-7.8214],[110.423,-7.8184],[110.421,-7.8167],[110.421,-7.8068],[110.4223,-7.8031],[110.4268,-7.8054],[110.4285,-7.8054],[110.429,-7.8035],[110.4378,-7.8042],[110.4397,-7.8011],[110.4379,-7.793],[110.441,-7.7903],[110.4404,-7.7864],[110.4584,-7.7774],[110.4595,-7.7784],[110.4582,-7.782],[110.4686,-7.7867],[110.4668,-7.7884],[110.4658,-7.7927],[110.4676,-7.7962],[110.467,-7.8009],[110.4727,-7.8028],[110.473,-7.8012],[110.4743,-7.8015],[110.4741,-7.8059],[110.4848,-7.8103],[110.4842,-7.8137],[110.4876,-7.8125],[110.4871,-7.8185],[110.4814,-7.8175],[110.4794,-7.8249],[110.4771,-7.8241],[110.4769,-7.8254],[110.4756,-7.8251],[110.4759,-7.8238],[110.4732,-7.8232],[110.4684,-7.8271],[110.4699,-7.8271],[110.4698,-7.8286],[110.4661,-7.8277],[110.4651,-7.8221],[110.462,-7.8212],[110.4612,-7.8227],[110.46,-7.8198],[110.4561,-7.8214],[110.4537,-7.8206],[110.4526,-7.8247],[110.4439,-7.8239],[110.4443,-7.8278]]]}},{"type":"Feature","properties":{"kabupaten":"Sleman","kecamatan":"Prambanan"},"geometry":{"type":"Polygon","coordinates":[[[110.5293,-7.7905],[110.5309,-7.7981],[110.5351,-7.7968],[110.5363,-7.794],[110.5374,-7.7947],[110.5362,-7.7977],[110.5398,-7.7979],[110.5406,-7.7947],[110.5455,-7.7926],[110.547,-7.7903],[110.5499,-7.7917],[110.5484,-7.7949],[110.5489,-7.7986],[110.5448,-7.8036],[110.5445,-7.8075],[110.5463,-7.8099],[110.5451,-7.8112],[110.5455,-7.8158],[110.5421,-7.8194],[110.5424,-7.8237],[110.5377,-7.8241],[110.5347,-7.8225],[110.5325,-7.8247],[110.5323,-7.8234],[110.5299,-7.8237],[110.5311,-7.8258],[110.5226,-7.8281],[110.519,-7.831],[110.515,-7.8302],[110.5144,-7.8281],[110.5112,-7.8289],[110.5093,-7.8221],[110.5069,-7.8216],[110.5071,-7.8231],[110.5053,-7.8236],[110.4845,-7.8213],[110.4854,-7.8185],[110.4871,-7.8185],[110.4876,-7.8125],[110.4842,-7.8137],[110.4848,-7.8103],[110.4741,-7.8059],[110.4743,-7.8015],[110.473,-7.8012],[110.4727,-7.8028],[110.467,-7.8009],[110.4676,-7.7962],[110.4658,-7.7927],[110.4668,-7.7884],[110.4687,-7.787],[110.4669,-7.7863],[110.4691,-7.7835],[110.4692,-7.7799],[110.4722,-7.7795],[110.472,-7.7766],[110.4772,-7.774],[110.4771,-7.7702],[110.4802,-7.7708],[110.4817,-7.7681],[110.4839,-7.768],[110.4869,-7.7646],[110.4851,-7.7605],[110.4895,-7.7534],[110.4895,-7.7498],[110.4866,-7.745],[110.4911,-7.7387],[110.4925,-7.7509],[110.4919,-7.7669],[110.5072,-7.769],[110.5118,-7.7716],[110.5108,-7.7756],[110.5124,-7.7791],[110.5178,-7.7824],[110.5231,-7.7836],[110.5239,-7.7864],[110.5293,-7.7905]]]}},{"type":"Feature","properties":{"kabupaten":"Sleman","kecamatan":"Kalasan"},"geometry":{"type":"Polygon","coordinates":[[[110.4768,-7.7705],[110.4772,-7.774],[110.472,-7.7766],[110.4722,-7.7795],[110.4693,-7.7797],[110.4698,-7.7814],[110.4672,-7.786],[110.4582,-7.782],[110.4595,-7.7784],[110.4584,-7.7774],[110.4412,-7.7862],[110.4393,-7.7852],[110.4385,-7.7812],[110.4406,-7.7677],[110.4437,-7.7677],[110.4436,-7.7604],[110.4467,-7.7572],[110.4484,-7.7508],[110.4454,-7.7445],[110.4448,-7.7356],[110.4434,-7.7321],[110.4413,-7.7317],[110.4402,-7.7207],[110.4423,-7.7177],[110.4518,-7.7168],[110.454,-7.7134],[110.4546,-7.7148],[110.4575,-7.7146],[110.4575,-7.7135],[110.4615,-7.713],[110.461,-7.7118],[110.467,-7.7092],[110.4714,-7.7165],[110.4729,-7.7157],[110.4767,-7.7227],[110.4822,-7.7183],[110.4812,-7.7107],[110.483,-7.7075],[110.4842,-7.7078],[110.4911,-7.7387],[110.4866,-7.745],[110.4895,-7.7498],[110.4895,-7.7534],[110.4851,-7.7605],[110.4869,-7.7646],[110.4839,-7.768],[110.4817,-7.7681],[110.4802,-7.7708],[110.4768,-7.7705]]]}},{"type":"Feature","properties":{"kabupaten":"Sleman","kecamatan":"Ngemplak"},"geometry":{"type":"Polygon","coordinates":[[[110.4404,-7.7193],[110.4413,-7.7317],[110.4434,-7.7321],[110.4448,-7.7356],[110.4447,-7.7411],[110.447,-7.7463],[110.4399,-7.7464],[110.4395,-7.7451],[110.4379,-7.7458],[110.4363,-7.745],[110.4367,-7.7437],[110.4343,-7.7434],[110.4355,-7.7457],[110.433,-7.7458],[110.4335,-7.7513],[110.4276,-7.7512],[110.4269,-7.7532],[110.4165,-7.7509],[110.4153,-7.7563],[110.4141,-7.7551],[110.4134,-7.7563],[110.4127,-7.7541],[110.4141,-7.7537],[110.4121,-7.752],[110.4123,-7.7495],[110.4087,-7.7468],[110.4102,-7.7401],[110.4087,-7.738],[110.4093,-7.7322],[110.4134,-7.7244],[110.412,-7.724],[110.4123,-7.7203],[110.4219,-7.7232],[110.4263,-7.7227],[110.4256,-7.7166],[110.4342,-7.7137],[110.4343,-7.7079],[110.4393,-7.7074],[110.4408,-7.712],[110.4432,-7.7098],[110.4427,-7.7025],[110.4388,-7.7035],[110.4376,-7.7019],[110.4361,-7.6884],[110.4339,-7.6866],[110.4306,-7.6866],[110.4303,-7.6887],[110.4272,-7.6884],[110.4274,-7.6858],[110.4245,-7.6845],[110.4219,-7.6929],[110.4146,-7.6924],[110.4137,-7.6886],[110.4084,-7.687],[110.4125,-7.6798],[110.4151,-7.6781],[110.4167,-7.6684],[110.4175,-7.6708],[110.4215,-7.6721],[110.4228,-7.671],[110.4271,-7.6733],[110.4284,-7.668],[110.4305,-7.668],[110.4307,-7.673],[110.4352,-7.6735],[110.4357,-7.6748],[110.4456,-7.675],[110.4475,-7.673],[110.4488,-7.6787],[110.4475,-7.6819],[110.4522,-7.6798],[110.459,-7.6795],[110.4602,-7.6816],[110.4613,-7.6809],[110.4629,-7.6823],[110.462,-7.6845],[110.4639,-7.6895],[110.4674,-7.6907],[110.4691,-7.6894],[110.4673,-7.6879],[110.4679,-7.685],[110.4664,-7.6849],[110.4687,-7.6763],[110.4666,-7.6706],[110.4689,-7.6708],[110.4709,-7.674],[110.4734,-7.672],[110.4735,-7.6743],[110.4749,-7.6737],[110.4775,-7.6777],[110.4842,-7.7078],[110.4825,-7.7075],[110.4812,-7.7107],[110.482,-7.7186],[110.4762,-7.7228],[110.4729,-7.7157],[110.4714,-7.7165],[110.467,-7.7092],[110.461,-7.7118],[110.4615,-7.713],[110.4575,-7.7135],[110.4575,-7.7146],[110.4546,-7.7148],[110.454,-7.7134],[110.4518,-7.7168],[110.4426,-7.7176],[110.4404,-7.7193]]]}},{"type":"Feature","properties":{"kabupaten":"Sleman","kecamatan":"Ngaglik"},"geometry":{"type":"Polygon","coordinates":[[[110.413,-7.727],[110.4093,-7.7322],[110.4087,-7.738],[110.4102,-7.7401],[110.4076,-7.75],[110.4032,-7.7492],[110.404,-7.7459],[110.4063,-7.7452],[110.4068,-7.741],[110.4043,-7.7396],[110.4024,-7.7424],[110.4006,-7.7323],[110.3968,-7.7376],[110.3972,-7.75],[110.396,-7.7498],[110.3956,-7.7518],[110.3936,-7.7521],[110.395,-7.7492],[110.3945,-7.7452],[110.3901,-7.7439],[110.3872,-7.7411],[110.3883,-7.7382],[110.3861,-7.7379],[110.3862,-7.7363],[110.3858,-7.7353],[110.3853,-7.7353],[110.3847,-7.7387],[110.3822,-7.7401],[110.3784,-7.7491],[110.3767,-7.7496],[110.3741,-7.7542],[110.3681,-7.7543],[110.3679,-7.7524],[110.3696,-7.7522],[110.3718,-7.7492],[110.3682,-7.7478],[110.3698,-7.7433],[110.3662,-7.7433],[110.3679,-7.7405],[110.3669,-7.7394],[110.3753,-7.7348],[110.3759,-7.7311],[110.375,-7.7278],[110.3713,-7.7281],[110.3733,-7.7219],[110.3683,-7.7202],[110.3699,-7.7204],[110.3712,-7.7186],[110.3746,-7.7114],[110.3724,-7.7115],[110.3763,-7.7086],[110.3767,-7.7065],[110.3744,-7.7053],[110.3762,-7.701],[110.3803,-7.7002],[110.3797,-7.6984],[110.3824,-7.6938],[110.38,-7.6912],[110.382,-7.6878],[110.374,-7.6839],[110.3762,-7.6803],[110.377,-7.6724],[110.3808,-7.6736],[110.3821,-7.6727],[110.384,-7.675],[110.3885,-7.676],[110.3918,-7.6745],[110.3944,-7.6752],[110.3936,-7.6835],[110.3953,-7.6843],[110.3955,-7.6873],[110.4017,-7.6872],[110.4017,-7.6862],[110.404,-7.6872],[110.4046,-7.6884],[110.4018,-7.6912],[110.4,-7.6976],[110.3971,-7.7002],[110.3997,-7.7026],[110.4034,-7.6978],[110.4054,-7.6905],[110.4085,-7.6869],[110.4137,-7.6886],[110.4146,-7.6924],[110.4163,-7.6927],[110.4193,-7.6919],[110.4219,-7.6929],[110.4245,-7.6845],[110.4274,-7.6858],[110.4272,-7.6884],[110.4303,-7.6887],[110.4312,-7.6864],[110.4361,-7.6884],[110.4376,-7.7019],[110.4388,-7.7035],[110.4427,-7.7025],[110.4432,-7.7098],[110.4408,-7.712],[110.4393,-7.7074],[110.4343,-7.7079],[110.4342,-7.7137],[110.4256,-7.7166],[110.4263,-7.7227],[110.4219,-7.7232],[110.4126,-7.7201],[110.413,-7.727]]]}},{"type":"Feature","properties":{"kabupaten":"Sleman","kecamatan":"Sleman"},"geometry":{"type":"Polygon","coordinates":[[[110.3679,-7.719],[110.364,-7.7247],[110.3583,-7.7221],[110.3555,-7.7286],[110.3532,-7.726],[110.3556,-7.7216],[110.3502,-7.7214],[110.3488,-7.7201],[110.3462,-7.7228],[110.3447,-7.7223],[110.3454,-7.7154],[110.3439,-7.7133],[110.342,-7.7147],[110.3402,-7.7132],[110.3391,-7.7062],[110.3363,-7.7067],[110.3358,-7.7081],[110.3346,-7.7073],[110.3333,-7.7106],[110.3316,-7.7099],[110.3347,-7.7012],[110.3315,-7.7004],[110.3291,-7.705],[110.3252,-7.7017],[110.3264,-7.6998],[110.3144,-7.6964],[110.3123,-7.6986],[110.3097,-7.6987],[110.3067,-7.6947],[110.3164,-7.6791],[110.3182,-7.6797],[110.3202,-7.6779],[110.3252,-7.6811],[110.3289,-7.6806],[110.3348,-7.6715],[110.3398,-7.6741],[110.3437,-7.6641],[110.3538,-7.6691],[110.3551,-7.6632],[110.3572,-7.6622],[110.3564,-7.6687],[110.3572,-7.6675],[110.3604,-7.6689],[110.3626,-7.6666],[110.3648,-7.667],[110.3646,-7.67],[110.3666,-7.6711],[110.3715,-7.6692],[110.3718,-7.6722],[110.3696,-7.6725],[110.3701,-7.6742],[110.3681,-7.676],[110.371,-7.6775],[110.3706,-7.6809],[110.3735,-7.6816],[110.374,-7.6839],[110.382,-7.6878],[110.38,-7.691],[110.3802,-7.6927],[110.3824,-7.6938],[110.3797,-7.6984],[110.3803,-7.7002],[110.3762,-7.701],[110.3746,-7.7045],[110.3767,-7.7065],[110.3763,-7.7086],[110.3724,-7.7115],[110.3746,-7.7114],[110.3699,-7.7204],[110.3679,-7.719]]]}},{"type":"Feature","properties":{"kabupaten":"Sleman","kecamatan":"Tempel"},"geometry":{"type":"Polygon","coordinates":[[[110.3038,-7.6945],[110.2969,-7.6994],[110.2984,-7.7016],[110.296,-7.7037],[110.2921,-7.7028],[110.2905,-7.7083],[110.2878,-7.7077],[110.2803,-7.7102],[110.2786,-7.7091],[110.2701,-7.7095],[110.2678,-7.7073],[110.2703,-7.7057],[110.2727,-7.7068],[110.2728,-7.7047],[110.2741,-7.7046],[110.2736,-7.7016],[110.2847,-7.6873],[110.2867,-7.6804],[110.2913,-7.6724],[110.2998,-7.6648],[110.303,-7.6562],[110.3227,-7.6452],[110.325,-7.642],[110.3328,-7.6374],[110.3348,-7.634],[110.3434,-7.6263],[110.3551,-7.6225],[110.3611,-7.617],[110.3644,-7.6175],[110.3659,-7.6198],[110.3571,-7.6284],[110.3563,-7.6327],[110.3523,-7.6363],[110.352,-7.6448],[110.3442,-7.6561],[110.3451,-7.6578],[110.3438,-7.6646],[110.3398,-7.6741],[110.3348,-7.6715],[110.3285,-7.6807],[110.3252,-7.6811],[110.3202,-7.6779],[110.3182,-7.6797],[110.3164,-7.6791],[110.3059,-7.6962],[110.3038,-7.6945]]]}},{"type":"Feature","properties":{"kabupaten":"Sleman","kecamatan":"Turi"},"geometry":{"type":"Polygon","coordinates":[[[110.3927,-7.6428],[110.3909,-7.6506],[110.3785,-7.6664],[110.3773,-7.6759],[110.3744,-7.6833],[110.3735,-7.6816],[110.3706,-7.6809],[110.371,-7.6775],[110.3681,-7.676],[110.3701,-7.6742],[110.3696,-7.6725],[110.3718,-7.6722],[110.3715,-7.6692],[110.3666,-7.6711],[110.3646,-7.67],[110.3648,-7.667],[110.3626,-7.6666],[110.3604,-7.6689],[110.3572,-7.6675],[110.3564,-7.6687],[110.3558,-7.6669],[110.3579,-7.6625],[110.3562,-7.662],[110.3538,-7.6691],[110.3437,-7.6641],[110.3451,-7.6578],[110.3442,-7.6561],[110.352,-7.6448],[110.3523,-7.6363],[110.3563,-7.6327],[110.3571,-7.6284],[110.3659,-7.6198],[110.3644,-7.6175],[110.362,-7.6169],[110.3662,-7.6127],[110.3763,-7.6066],[110.3796,-7.6013],[110.3843,-7.6001],[110.3908,-7.5954],[110.3901,-7.5925],[110.3965,-7.5892],[110.4001,-7.585],[110.4019,-7.5792],[110.4134,-7.5654],[110.4152,-7.5701],[110.4163,-7.5828],[110.4133,-7.5869],[110.4122,-7.5952],[110.4091,-7.599],[110.4091,-7.6071],[110.4033,-7.6186],[110.4048,-7.6203],[110.4036,-7.6241],[110.3998,-7.6294],[110.3983,-7.6363],[110.3927,-7.6428]],[[110.38,-7.646],[110.38,-7.6459],[110.3799,-7.6459],[110.38,-7.646]]]}},{"type":"Feature","properties":{"kabupaten":"Sleman","kecamatan":"Pakem"},"geometry":{"type":"Polygon","coordinates":[[[110.4175,-7.6686],[110.415,-7.6783],[110.4125,-7.6798],[110.4054,-7.6905],[110.4034,-7.6978],[110.3997,-7.7026],[110.3971,-7.7002],[110.4,-7.6976],[110.4018,-7.6912],[110.4046,-7.6884],[110.404,-7.6872],[110.4017,-7.6862],[110.4017,-7.6872],[110.3955,-7.6873],[110.3953,-7.6843],[110.3936,-7.6835],[110.3944,-7.6752],[110.3918,-7.6745],[110.3879,-7.6759],[110.384,-7.675],[110.3821,-7.6727],[110.3808,-7.6736],[110.3773,-7.6723],[110.3785,-7.6664],[110.3909,-7.6506],[110.3925,-7.6432],[110.3983,-7.6363],[110.3998,-7.6294],[110.4036,-7.6241],[110.4048,-7.6203],[110.4033,-7.6186],[110.4091,-7.6071],[110.4091,-7.599],[110.4122,-7.5952],[110.4133,-7.5869],[110.4163,-7.5828],[110.4152,-7.5701],[110.4134,-7.5654],[110.4288,-7.5521],[110.4407,-7.5464],[110.4461,-7.542],[110.4484,-7.5474],[110.4554,-7.5545],[110.4565,-7.5632],[110.4585,-7.5675],[110.455,-7.5705],[110.4473,-7.5705],[110.4435,-7.5726],[110.4417,-7.5767],[110.4416,-7.583],[110.4394,-7.5872],[110.4415,-7.5907],[110.4353,-7.6027],[110.4305,-7.6066],[110.4289,-7.6128],[110.4302,-7.6155],[110.4283,-7.6181],[110.4268,-7.6252],[110.4276,-7.6351],[110.4264,-7.6371],[110.4284,-7.6397],[110.4281,-7.6469],[110.431,-7.6527],[110.4297,-7.6597],[110.4321,-7.6644],[110.4305,-7.6656],[110.4305,-7.668],[110.4284,-7.668],[110.4271,-7.6733],[110.4228,-7.671],[110.4215,-7.6721],[110.4175,-7.6708],[110.4175,-7.6686]]]}},{"type":"Feature","properties":{"kabupaten":"Sleman","kecamatan":"Cangkringan"},"geometry":{"type":"Polygon","coordinates":[[[110.4685,-7.6372],[110.4775,-7.6777],[110.4749,-7.6737],[110.4735,-7.6743],[110.4734,-7.672],[110.4709,-7.674],[110.4689,-7.6708],[110.4666,-7.6706],[110.4687,-7.6765],[110.4664,-7.6849],[110.4679,-7.685],[110.4673,-7.6879],[110.4689,-7.6903],[110.4639,-7.6895],[110.462,-7.6845],[110.4629,-7.6823],[110.4613,-7.6809],[110.4602,-7.6816],[110.459,-7.6795],[110.4522,-7.6798],[110.4475,-7.6819],[110.4488,-7.6788],[110.4475,-7.673],[110.4456,-7.675],[110.4357,-7.6748],[110.4352,-7.6735],[110.4305,-7.6726],[110.4305,-7.6656],[110.4322,-7.664],[110.4297,-7.6597],[110.4311,-7.6527],[110.4281,-7.6469],[110.4284,-7.6397],[110.4264,-7.6371],[110.4276,-7.6351],[110.4268,-7.6252],[110.4283,-7.6181],[110.4302,-7.6155],[110.4289,-7.6128],[110.4301,-7.6081],[110.438,-7.5986],[110.4383,-7.5956],[110.4415,-7.5907],[110.4394,-7.5872],[110.4416,-7.583],[110.4417,-7.5767],[110.4435,-7.5726],[110.4473,-7.5705],[110.455,-7.5705],[110.4585,-7.5675],[110.463,-7.6034],[110.4685,-7.6175],[110.4685,-7.6372]]]}},{"type":"Feature","properties":{"kabupaten":"Kota Yogyakarta","kecamatan":"Tegalrejo"},"geometry":{"type":"Polygon","coordinates":[[[110.3595,-7.78],[110.3552,-7.7858],[110.3552,-7.7894],[110.3571,-7.7902],[110.3555,-7.7942],[110.3487,-7.7932],[110.3511,-7.7803],[110.3511,-7.7697],[110.3521,-7.7719],[110.3535,-7.7718],[110.3522,-7.7665],[110.3557,-7.7688],[110.3652,-7.7685],[110.3647,-7.7701],[110.3666,-7.7703],[110.3669,-7.7717],[110.3689,-7.7695],[110.3693,-7.7738],[110.3676,-7.7733],[110.3654,-7.7757],[110.365,-7.7804],[110.3595,-7.78]]]}},{"type":"Feature","properties":{"kabupaten":"Kota Yogyakarta","kecamatan":"Jetis"},"geometry":{"type":"Polygon","coordinates":[[[110.3716,-7.7814],[110.3682,-7.787],[110.3689,-7.7898],[110.3628,-7.7873],[110.3618,-7.7892],[110.3554,-7.7887],[110.3553,-7.7854],[110.3578,-7.7814],[110.3595,-7.78],[110.365,-7.7804],[110.3652,-7.7762],[110.3676,-7.7733],[110.3714,-7.7773],[110.3702,-7.7802],[110.3716,-7.7814]]]}},{"type":"Feature","properties":{"kabupaten":"Kota Yogyakarta","kecamatan":"Gondokusuman"},"geometry":{"type":"Polygon","coordinates":[[[110.3912,-7.7939],[110.3803,-7.7941],[110.3805,-7.7984],[110.3779,-7.7981],[110.3783,-7.7883],[110.3729,-7.7903],[110.3689,-7.7898],[110.3682,-7.787],[110.3716,-7.7818],[110.3702,-7.7807],[110.3714,-7.7773],[110.3702,-7.7752],[110.3888,-7.7801],[110.3921,-7.7855],[110.396,-7.7884],[110.3944,-7.792],[110.3912,-7.7939]]]}},{"type":"Feature","properties":{"kabupaten":"Kota Yogyakarta","kecamatan":"Danurejan"},"geometry":{"type":"Polygon","coordinates":[[[110.37,-7.7901],[110.3783,-7.7883],[110.3775,-7.7973],[110.3652,-7.7965],[110.3662,-7.7895],[110.37,-7.7901]]]}},{"type":"Feature","properties":{"kabupaten":"Kota Yogyakarta","kecamatan":"Gedongtengen"},"geometry":{"type":"Polygon","coordinates":[[[110.3652,-7.7965],[110.3555,-7.7958],[110.3556,-7.792],[110.3571,-7.7902],[110.3554,-7.7887],[110.3618,-7.7892],[110.3628,-7.7873],[110.3663,-7.7878],[110.3652,-7.7965]]]}},{"type":"Feature","properties":{"kabupaten":"Kota Yogyakarta","kecamatan":"Ngampilan"},"geometry":{"type":"Polygon","coordinates":[[[110.362,-7.7963],[110.3605,-7.8044],[110.3562,-7.8041],[110.3558,-7.8086],[110.3538,-7.8082],[110.3554,-7.8061],[110.3539,-7.8049],[110.3555,-7.7958],[110.362,-7.7963]]]}},{"type":"Feature","properties":{"kabupaten":"Kota Yogyakarta","kecamatan":"Wirobrajan"},"geometry":{"type":"Polygon","coordinates":[[[110.3554,-7.8061],[110.3522,-7.8124],[110.3457,-7.8114],[110.3443,-7.8075],[110.3468,-7.8024],[110.3475,-7.7952],[110.3495,-7.795],[110.3475,-7.7933],[110.3555,-7.7942],[110.3539,-7.8049],[110.3554,-7.8061]]]}},{"type":"Feature","properties":{"kabupaten":"Kota Yogyakarta","kecamatan":"Mantrijeron"},"geometry":{"type":"Polygon","coordinates":[[[110.3561,-7.813],[110.3687,-7.8147],[110.3674,-7.8284],[110.3661,-7.8282],[110.3664,-7.8266],[110.3516,-7.8256],[110.3526,-7.8236],[110.3508,-7.8214],[110.3511,-7.8183],[110.3526,-7.8163],[110.3511,-7.8145],[110.3538,-7.8082],[110.3562,-7.8087],[110.3561,-7.813]]]}},{"type":"Feature","properties":{"kabupaten":"Kota Yogyakarta","kecamatan":"Kraton"},"geometry":{"type":"Polygon","coordinates":[[[110.3687,-7.8147],[110.356,-7.8129],[110.3562,-7.8041],[110.3642,-7.8051],[110.3645,-7.8028],[110.3693,-7.8035],[110.3687,-7.8147]]]}},{"type":"Feature","properties":{"kabupaten":"Kota Yogyakarta","kecamatan":"Gondomanan"},"geometry":{"type":"Polygon","coordinates":[[[110.3715,-7.803],[110.3741,-7.805],[110.3737,-7.8078],[110.3693,-7.808],[110.3693,-7.8035],[110.3645,-7.8028],[110.3642,-7.8051],[110.3605,-7.8044],[110.362,-7.7963],[110.37,-7.7968],[110.3715,-7.803]]]}},{"type":"Feature","properties":{"kabupaten":"Kota Yogyakarta","kecamatan":"Pakualaman"},"geometry":{"type":"Polygon","coordinates":[[[110.3775,-7.7973],[110.3806,-7.7989],[110.3807,-7.8019],[110.3788,-7.8019],[110.3781,-7.8047],[110.3752,-7.8045],[110.3751,-7.8015],[110.3712,-7.8014],[110.3697,-7.7979],[110.37,-7.7968],[110.3775,-7.7973]]]}},{"type":"Feature","properties":{"kabupaten":"Kota Yogyakarta","kecamatan":"Mergangsan"},"geometry":{"type":"Polygon","coordinates":[[[110.3766,-7.8138],[110.3761,-7.8219],[110.3727,-7.8281],[110.3693,-7.825],[110.3678,-7.8273],[110.3693,-7.808],[110.3737,-7.8078],[110.3742,-7.806],[110.3712,-7.8014],[110.3751,-7.8015],[110.3752,-7.8045],[110.3781,-7.8047],[110.3788,-7.8019],[110.3807,-7.8019],[110.3814,-7.8051],[110.3797,-7.8061],[110.379,-7.8098],[110.3816,-7.8123],[110.3816,-7.8152],[110.3766,-7.8138]]]}},{"type":"Feature","properties":{"kabupaten":"Kota Yogyakarta","kecamatan":"Umbulharjo"},"geometry":{"type":"Polygon","coordinates":[[[110.3902,-7.824],[110.3937,-7.8271],[110.3934,-7.8296],[110.396,-7.8333],[110.3952,-7.8369],[110.3906,-7.8369],[110.3899,-7.8402],[110.3881,-7.8401],[110.3881,-7.8368],[110.3869,-7.8365],[110.3878,-7.8341],[110.3861,-7.8341],[110.3845,-7.8291],[110.3799,-7.8286],[110.3802,-7.8298],[110.3768,-7.831],[110.3761,-7.8292],[110.3751,-7.8311],[110.3766,-7.8138],[110.3816,-7.8152],[110.3816,-7.8123],[110.379,-7.8098],[110.3797,-7.8061],[110.3814,-7.8051],[110.3803,-7.7941],[110.3912,-7.7939],[110.3972,-7.7884],[110.396,-7.7944],[110.3986,-7.8013],[110.393,-7.815],[110.3918,-7.8152],[110.3939,-7.8168],[110.3943,-7.8232],[110.3934,-7.8258],[110.3923,-7.8252],[110.3929,-7.8234],[110.3903,-7.8223],[110.3902,-7.824]]]}},{"type":"Feature","properties":{"kabupaten":"Kota Yogyakarta","kecamatan":"Kotagede"},"geometry":{"type":"Polygon","coordinates":[[[110.4011,-7.8205],[110.4048,-7.8225],[110.4042,-7.8254],[110.4051,-7.8304],[110.4067,-7.8315],[110.4065,-7.8345],[110.4022,-7.834],[110.4008,-7.832],[110.3989,-7.8334],[110.3993,-7.8278],[110.3936,-7.8271],[110.3901,-7.8251],[110.3903,-7.8223],[110.3929,-7.8234],[110.3923,-7.8252],[110.3934,-7.8258],[110.3943,-7.8232],[110.3939,-7.8168],[110.3918,-7.8152],[110.393,-7.815],[110.3943,-7.8097],[110.3962,-7.808],[110.3974,-7.8021],[110.4024,-7.8022],[110.4011,-7.8205]]]}}]}