{"type":"FeatureCollection","features":[{"type":"Feature","properties":{"kabupaten":"Kulon Progo"},"geometry":{"type":"Polygon","coordinates":[[[110.128,-7.9398],[110.0673,-7.913],[110.0316,-7.8999],[110.0037,-7.8878],[110.005,-7.8852],[110.0147,-7.8902],[110.0184,-7.8898],[110.0208,-7.8919],[110.0271,-7.8899],[110.0294,-7.8914],[110.0304,-7.8953],[110.032,-7.8954],[110.0334,-7.8945],[110.0363,-7.8844],[110.0405,-7.8845],[110.0417,-7.8829],[110.0435,-7.8839],[110.0424,-7.879],[110.0431,-7.8728],[110.0448,-7.8731],[110.0449,-7.8712],[110.0427,-7.866],[110.0431,-7.86],[110.0506,-7.8514],[110.0517,-7.8455],[110.0501,-7.8416],[110.0584,-7.8362],[110.0626,-7.8131],[110.0673,-7.8093],[110.0733,-7.8092],[110.0811,-7.8068],[110.0918,-7.7875],[110.0994,-7.7814],[110.1011,-7.7757],[110.1062,-7.7788],[110.1107,-7.778],[110.1122,-7.7724],[110.1145,-7.7705],[110.1136,-7.7656],[110.118,-7.7584],[110.1225,-7.752],[110.1297,-7.7484],[110.1304,-7.7408],[110.1323,-7.7405],[110.1321,-7.7347],[110.1241,-7.7292],[110.1273,-7.7162],[110.1334,-7.7133],[110.1335,-7.7099],[110.1358,-7.706],[110.1346,-7.704],[110.1321,-7.7036],[110.1311,-7.6998],[110.1386,-7.6948],[110.1355,-7.6873],[110.1316,-7.6837],[110.1253,-7.6819],[110.1269,-7.6773],[110.1232,-7.6763],[110.1211,-7.6728],[110.1173,-7.6709],[110.1183,-7.668],[110.122,-7.6677],[110.123,-7.6636],[110.1301,-7.6577],[110.1308,-7.6543],[110.1364,-7.6541],[110.1423,-7.6446],[110.1454,-7.6499],[110.1514,-7.6463],[110.156,-7.6471],[110.1599,-7.6458],[110.1616,-7.6482],[110.1627,-7.6466],[110.1658,-7.6489],[110.1918,-7.645],[110.198,-7.6495],[110.2052,-7.652],[110.2133,-7.648],[110.2331,-7.6506],[110.2405,-7.6543],[110.2451,-7.6511],[110.2474,-7.6464],[110.2503,-7.6461],[110.2519,-7.6424],[110.2538,-7.6416],[110.2607,-7.644],[110.2661,-7.6496],[110.2638,-7.6526],[110.2648,-7.6559],[110.263,-7.6607],[110.2672,-7.6637],[110.2653,-7.6683],[110.2659,-7.6739],[110.263,-7.6789],[110.2644,-7.682],[110.2609,-7.6869],[110.2656,-7.6906],[110.2707,-7.7032],[110.2703,-7.7057],[110.2678,-7.7073],[110.2584,-7.7043],[110.253,-7.7086],[110.2438,-7.7101],[110.2373,-7.7134],[110.233,-7.7134],[110.2316,-7.7166],[110.2318,-7.7226],[110.2249,-7.7235],[110.2215,-7.7338],[110.2165,-7.7383],[110.2159,-7.7417],[110.2195,-7.748],[110.2177,-7.7517],[110.2202,-7.7547],[110.2185,-7.7581],[110.222,-7.7599],[110.2195,-7.763],[110.2224,-7.7672],[110.2218,-7.7732],[110.22,-7.7764],[110.228,-7.7851],[110.229,-7.7888],[110.2325,-7.7904],[110.236,-7.7983],[110.2351,-7.8004],[110.2299,-7.8031],[110.2283,-7.8056],[110.2323,-7.81],[110.2342,-7.8169],[110.2329,-7.8257],[110.229,-7.832],[110.2265,-7.8341],[110.2219,-7.8351],[110.2211,-7.8375],[110.2264,-7.8427],[110.2313,-7.8443],[110.2375,-7.853],[110.2563,-7.8656],[110.2719,-7.8896],[110.2741,-7.9009],[110.2708,-7.924],[110.268,-7.9279],[110.2653,-7.9291],[110.2631,-7.9289],[110.2553,-7.9235],[110.2476,-7.928],[110.2377,-7.9489],[110.2196,-7.9727],[110.2144,-7.9776],[110.2039,-7.9832],[110.175,-7.9637],[110.128,-7.9398]],[[110.2088,-7.7736],[110.2092,-7.7739],[110.2088,-7.7735],[110.2088,-7.7736]],[[110.1624,-7.8576],[110.1625,-7.8576],[110.1622,-7.8575],[110.1624,-7.8576]],[[110.1419,-7.903],[110.1419,-7.9031],[110.1421,-7.9024],[110.1419,-7.903]],[[110.1261,-7.9109],[110.1285,-7.9107],[110.1298,-7.9109],[110.1285,-7.9106],[110.1261,-7.9109]],[[110.1057,-7.8786],[110.1061,-7.8787],[110.1054,-7.8788],[110.1057,-7.8786]],[[110.0714,-7.8936],[110.0705,-7.8934],[110.0719,-7.8942],[110.0714,-7.8936]]]}},{"type":"Feature","properties":{"kabupaten":"Bantul"},"geometry":{"type":"Polygon","coordinates":[[[110.3307,-8.0079],[110.3359,-8.0222],[110.3399,-8.0282],[110.307,-8.0176],[110.2724,-8.0089],[110.2039,-7.9832],[110.2144,-7.9776],[110.2196,-7.9727],[110.2377,-7.9489],[110.2476,-7.928],[110.2553,-7.9235],[110.2631,-7.9289],[110.2671,-7.9285],[110.2708,-7.924],[110.2722,-7.9178],[110.2741,-7.9005],[110.2719,-7.8896],[110.2563,-7.8656],[110.2375,-7.853],[110.2313,-7.8443],[110.2264,-7.8427],[110.2211,-7.8375],[110.2213,-7.8356],[110.2265,-7.8341],[110.2319,-7.8282],[110.2337,-7.8231],[110.2332,-7.8149],[110.2371,-7.809],[110.2448,-7.8044],[110.2513,-7.8035],[110.259,-7.7989],[110.2636,-7.7942],[110.2678,-7.7958],[110.2705,-7.7932],[110.2733,-7.7937],[110.2789,-7.7861],[110.2831,-7.7869],[110.2866,-7.7848],[110.2887,-7.7856],[110.2882,-7.7873],[110.2862,-7.7879],[110.2863,-7.7901],[110.2902,-7.7938],[110.2895,-7.7981],[110.2865,-7.8006],[110.2862,-7.8043],[110.2815,-7.8068],[110.2837,-7.8135],[110.282,-7.8171],[110.2851,-7.8179],[110.2876,-7.8222],[110.2851,-7.8297],[110.2876,-7.8307],[110.2887,-7.8339],[110.291,-7.8341],[110.2928,-7.834],[110.2981,-7.8274],[110.3067,-7.8291],[110.3073,-7.8222],[110.3179,-7.8231],[110.3179,-7.8201],[110.3151,-7.8194],[110.3174,-7.8064],[110.3267,-7.8063],[110.3278,-7.805],[110.3298,-7.8079],[110.33,-7.805],[110.3323,-7.8033],[110.3318,-7.8006],[110.3338,-7.8],[110.3342,-7.7982],[110.3386,-7.798],[110.3398,-7.7923],[110.3436,-7.7919],[110.3475,-7.7821],[110.3489,-7.7702],[110.3509,-7.768],[110.3511,-7.7803],[110.3487,-7.7934],[110.3473,-7.7938],[110.3495,-7.795],[110.3475,-7.7952],[110.3468,-7.8024],[110.3443,-7.8075],[110.3457,-7.8114],[110.3522,-7.8124],[110.3511,-7.8145],[110.3526,-7.8163],[110.3511,-7.8183],[110.3508,-7.8214],[110.3526,-7.8236],[110.3516,-7.8256],[110.3664,-7.8266],[110.3661,-7.8282],[110.3674,-7.8284],[110.3693,-7.825],[110.3727,-7.8281],[110.3735,-7.825],[110.375,-7.8246],[110.3751,-7.8311],[110.3761,-7.8292],[110.3768,-7.831],[110.3802,-7.8298],[110.3799,-7.8286],[110.3845,-7.8291],[110.3861,-7.8341],[110.3878,-7.8341],[110.3869,-7.8365],[110.3881,-7.8368],[110.3881,-7.8401],[110.3899,-7.8402],[110.3906,-7.8369],[110.3953,-7.8367],[110.396,-7.8328],[110.3934,-7.8296],[110.3937,-7.8271],[110.3993,-7.8278],[110.3991,-7.8335],[110.4008,-7.832],[110.4022,-7.834],[110.4065,-7.8345],[110.4068,-7.833],[110.4065,-7.8308],[110.4051,-7.8304],[110.4048,-7.8225],[110.4011,-7.8205],[110.4024,-7.8022],[110.3978,-7.802],[110.3987,-7.8002],[110.396,-7.7944],[110.3971,-7.7864],[110.3986,-7.7855],[110.3984,-7.7883],[110.4037,-7.7879],[110.4063,-7.7855],[110.4066,-7.7876],[110.4092,-7.7863],[110.4094,-7.7874],[110.4208,-7.7864],[110.4214,-7.7907],[110.4203,-7.7917],[110.4229,-7.7963],[110.421,-7.8068],[110.421,-7.8167],[110.423,-7.8186],[110.4214,-7.8214],[110.4268,-7.8231],[110.4283,-7.8216],[110.4261,-7.827],[110.4285,-7.8298],[110.4315,-7.8303],[110.4311,-7.8321],[110.4299,-7.8319],[110.4299,-7.8373],[110.4354,-7.8366],[110.4341,-7.835],[110.4364,-7.8294],[110.441,-7.8275],[110.4443,-7.8278],[110.4439,-7.8239],[110.4526,-7.8247],[110.4537,-7.8206],[110.4561,-7.8214],[110.46,-7.8198],[110.4612,-7.8227],[110.462,-7.8212],[110.4651,-7.8221],[110.4661,-7.8277],[110.4698,-7.8286],[110.4699,-7.8271],[110.4684,-7.8271],[110.4732,-7.8232],[110.4759,-7.8238],[110.4756,-7.8251],[110.4769,-7.8254],[110.4771,-7.8241],[110.4794,-7.8249],[110.4814,-7.8175],[110.4854,-7.8185],[110.4845,-7.8213],[110.4923,-7.8229],[110.5015,-7.8224],[110.5053,-7.8236],[110.5071,-7.8231],[110.5069,-7.8216],[110.5093,-7.8221],[110.5112,-7.8289],[110.5144,-7.8281],[110.515,-7.8302],[110.5212,-7.8322],[110.5196,-7.8358],[110.5074,-7.8392],[110.4972,-7.838],[110.4942,-7.8394],[110.4886,-7.8377],[110.4869,-7.841],[110.4806,-7.8444],[110.4736,-7.8548],[110.4729,-7.8613],[110.4706,-7.8621],[110.4676,-7.8668],[110.4676,-7.8712],[110.4749,-7.8848],[110.476,-7.8898],[110.4947,-7.8906],[110.4963,-7.8924],[110.4957,-7.8964],[110.4978,-7.9001],[110.4959,-7.9141],[110.4913,-7.9253],[110.4932,-7.9316],[110.4921,-7.9381],[110.4886,-7.9393],[110.4896,-7.942],[110.4883,-7.945],[110.482,-7.9421],[110.4765,-7.9426],[110.4781,-7.9503],[110.4726,-7.9535],[110.476,-7.9647],[110.4751,-7.9668],[110.4727,-7.9674],[110.4769,-7.9698],[110.4771,-7.9714],[110.4747,-7.9719],[110.4734,-7.9703],[110.4692,-7.9698],[110.4675,-7.9712],[110.4633,-7.9683],[110.4646,-7.9665],[110.4676,-7.9666],[110.4706,-7.9629],[110.4647,-7.9588],[110.4645,-7.9572],[110.4672,-7.9556],[110.4661,-7.9541],[110.4571,-7.9575],[110.4574,-7.9652],[110.4547,-7.9674],[110.4506,-7.9608],[110.4514,-7.955],[110.4548,-7.9515],[110.4519,-7.9475],[110.4494,-7.9469],[110.4436,-7.9515],[110.4447,-7.9575],[110.4433,-7.967],[110.4352,-7.9666],[110.4316,-7.963],[110.4295,-7.9665],[110.4209,-7.9734],[110.4084,-7.9715],[110.4045,-7.9682],[110.3971,-7.9671],[110.3956,-7.9686],[110.3963,-7.9737],[110.3994,-7.9788],[110.3976,-7.9807],[110.3739,-7.9793],[110.3656,-7.9724],[110.363,-7.9815],[110.3596,-7.9823],[110.3553,-7.9781],[110.3528,-7.9784],[110.3504,-7.9744],[110.348,-7.9742],[110.3527,-7.9808],[110.3502,-7.984],[110.3494,-7.9884],[110.3506,-7.9899],[110.3531,-7.9876],[110.3525,-7.9932],[110.3511,-7.994],[110.3405,-7.9917],[110.3329,-7.9963],[110.3313,-7.9994],[110.3307,-8.0079]],[[110.4079,-7.936],[110.4076,-7.9363],[110.4079,-7.9361],[110.4079,-7.936]],[[110.3866,-7.9233],[110.3867,-7.9236],[110.3866,-7.923],[110.3866,-7.9233]],[[110.3278,-7.9493],[110.3285,-7.948],[110.3296,-7.9456],[110.3284,-7.948],[110.3278,-7.9493]],[[110.315,-7.9183],[110.3149,-7.9182],[110.3145,-7.9191],[110.315,-7.9183]],[[110.3095,-7.8909],[110.3095,-7.891],[110.3098,-7.891],[110.3095,-7.8909]],[[110.261,-7.9545],[110.2595,-7.9543],[110.2616,-7.9547],[110.261,-7.9545]]]}},{"type":"Feature","properties":{"kabupaten":"Gunungkidul"},"geometry":{"type":"Polygon","coordinates":[[[110.5582,-8.0984],[110.5433,-8.123],[110.5479,-8.1289],[110.5461,-8.1323],[110.5448,-8.1319],[110.5456,-8.1352],[110.5351,-8.1313],[110.5344,-8.1298],[110.5325,-8.1315],[110.5304,-8.1302],[110.5292,-8.1318],[110.5274,-8.1314],[110.5276,-8.1296],[110.5254,-8.1301],[110.5263,-8.1289],[110.5242,-8.1278],[110.5226,-8.1288],[110.5215,-8.1259],[110.5166,-8.125],[110.5162,-8.1228],[110.514,-8.1233],[110.5144,-8.1214],[110.5124,-8.124],[110.5095,-8.1211],[110.5063,-8.121],[110.5029,-8.1186],[110.4967,-8.118],[110.4959,-8.1166],[110.4912,-8.1172],[110.4891,-8.1139],[110.4857,-8.1135],[110.4857,-8.1121],[110.4815,-8.1123],[110.4763,-8.1099],[110.4721,-8.1107],[110.4689,-8.108],[110.4691,-8.1106],[110.4682,-8.1096],[110.4671,-8.1104],[110.4621,-8.1064],[110.4502,-8.1005],[110.4416,-8.1009],[110.4406,-8.099],[110.4386,-8.1006],[110.438,-8.0994],[110.4363,-8.1001],[110.4358,-8.0983],[110.4339,-8.0987],[110.4346,-8.0935],[110.4303,-8.0892],[110.4243,-8.087],[110.4229,-8.088],[110.4208,-8.0864],[110.4193,-8.087],[110.418,-8.0847],[110.416,-8.0844],[110.4163,-8.0826],[110.4096,-8.0814],[110.4086,-8.0792],[110.4041,-8.0799],[110.4012,-8.0778],[110.3983,-8.0788],[110.3964,-8.0768],[110.3916,-8.0762],[110.3872,-8.0725],[110.3752,-8.0716],[110.368,-8.061],[110.3638,-8.0601],[110.3546,-8.0518],[110.3481,-8.0409],[110.3445,-8.0304],[110.3399,-8.0282],[110.3359,-8.0222],[110.3307,-8.0079],[110.3319,-7.9977],[110.3405,-7.9917],[110.3522,-7.9937],[110.3531,-7.9876],[110.3506,-7.9899],[110.3494,-7.9884],[110.3502,-7.984],[110.3527,-7.9808],[110.3481,-7.9758],[110.3482,-7.9741],[110.3504,-7.9744],[110.3528,-7.9784],[110.3553,-7.9781],[110.3596,-7.9823],[110.363,-7.9815],[110.3656,-7.9724],[110.3739,-7.9793],[110.3858,-7.9794],[110.3951,-7.9811],[110.3994,-7.9788],[110.3963,-7.9737],[110.3956,-7.9686],[110.3971,-7.9671],[110.4045,-7.9682],[110.4084,-7.9715],[110.4209,-7.9734],[110.4295,-7.9665],[110.4316,-7.963],[110.4352,-7.9666],[110.4433,-7.967],[110.4447,-7.9575],[110.4436,-7.9515],[110.4494,-7.9469],[110.4519,-7.9475],[110.4548,-7.9515],[110.4514,-7.955],[110.4506,-7.9608],[110.4547,-7.9674],[110.4574,-7.9652],[110.4571,-7.9575],[110.4661,-7.9541],[110.4672,-7.9556],[110.4645,-7.9572],[110.4647,-7.9588],[110.4706,-7.9629],[110.4676,-7.9666],[110.4646,-7.9665],[110.4633,-7.9683],[110.4675,-7.9712],[110.4692,-7.9698],[110.4734,-7.9703],[110.4747,-7.9719],[110.4771,-7.9714],[110.4769,-7.9698],[110.4727,-7.9674],[110.4751,-7.9668],[110.476,-7.9647],[110.4726,-7.9535],[110.4781,-7.9503],[110.4765,-7.9426],[110.482,-7.9421],[110.4883,-7.945],[110.4896,-7.942],[110.4886,-7.9393],[110.4921,-7.9381],[110.4932,-7.9316],[110.4913,-7.9253],[110.4959,-7.9141],[110.4978,-7.9001],[110.4957,-7.8964],[110.4963,-7.8924],[110.4947,-7.8906],[110.476,-7.8898],[110.4749,-7.8848],[110.4676,-7.8712],[110.4676,-7.8668],[110.4706,-7.8621],[110.4729,-7.8613],[110.4736,-7.8548],[110.4806,-7.8444],[110.4869,-7.841],[110.4886,-7.8377],[110.4947,-7.8394],[110.4972,-7.838],[110.5074,-7.8392],[110.5157,-7.8374],[110.5208,-7.8345],[110.5212,-7.8322],[110.5195,-7.8309],[110.5217,-7.8286],[110.5311,-7.8258],[110.5297,-7.8238],[110.5323,-7.8234],[110.5325,-7.8247],[110.5347,-7.8225],[110.5377,-7.8241],[110.5424,-7.8237],[110.5421,-7.8194],[110.5455,-7.8158],[110.5451,-7.8112],[110.5463,-7.8099],[110.5445,-7.8075],[110.5449,-7.8031],[110.5489,-7.7986],[110.5484,-7.7949],[110.5497,-7.7918],[110.5512,-7.7947],[110.5554,-7.7942],[110.5563,-7.7928],[110.5535,-7.7871],[110.5554,-7.7868],[110.5557,-7.7844],[110.5574,-7.7834],[110.565,-7.782],[110.5779,-7.7896],[110.5822,-7.7894],[110.5814,-7.7947],[110.5841,-7.7963],[110.5841,-7.7981],[110.5764,-7.8017],[110.5758,-7.8049],[110.5797,-7.8058],[110.5864,-7.8027],[110.5884,-7.805],[110.5859,-7.8083],[110.5945,-7.8059],[110.5998,-7.8066],[110.6006,-7.8049],[110.5988,-7.7999],[110.604,-7.7982],[110.6109,-7.7982],[110.6161,-7.8016],[110.6195,-7.7988],[110.6233,-7.8002],[110.6253,-7.8034],[110.6304,-7.798],[110.6333,-7.7981],[110.6326,-7.8011],[110.6389,-7.8001],[110.6511,-7.7932],[110.6546,-7.7961],[110.6554,-7.8023],[110.6577,-7.8048],[110.6605,-7.8021],[110.664,-7.7931],[110.6667,-7.7929],[110.6706,-7.7859],[110.6742,-7.7876],[110.6766,-7.7913],[110.6723,-7.796],[110.6728,-7.7992],[110.6777,-7.8016],[110.6818,-7.8065],[110.6923,-7.8083],[110.7089,-7.8052],[110.7143,-7.7991],[110.7118,-7.7914],[110.7131,-7.79],[110.7234,-7.7928],[110.7426,-7.8066],[110.7509,-7.8147],[110.7517,-7.8229],[110.7532,-7.8246],[110.7634,-7.824],[110.7641,-7.8192],[110.7626,-7.818],[110.7626,-7.8154],[110.7649,-7.8135],[110.7633,-7.8129],[110.7639,-7.8108],[110.7703,-7.8079],[110.7738,-7.8092],[110.7754,-7.8107],[110.7754,-7.8136],[110.7783,-7.8153],[110.78,-7.8137],[110.7855,-7.8167],[110.7849,-7.8266],[110.7831,-7.8299],[110.7826,-7.8462],[110.7847,-7.8473],[110.7836,-7.849],[110.7845,-7.8505],[110.7831,-7.8514],[110.7854,-7.8528],[110.7843,-7.861],[110.7827,-7.8626],[110.7842,-7.8663],[110.783,-7.8669],[110.7841,-7.8724],[110.7835,-7.8744],[110.7791,-7.8766],[110.7776,-7.879],[110.7756,-7.8868],[110.7778,-7.8919],[110.777,-7.8941],[110.7743,-7.8955],[110.7703,-7.906],[110.7693,-7.9154],[110.7722,-7.9282],[110.771,-7.9301],[110.7716,-7.9464],[110.7684,-7.9551],[110.7684,-7.9795],[110.7668,-7.9882],[110.7615,-7.9972],[110.7617,-8.0035],[110.7586,-8.0084],[110.7556,-8.0247],[110.7581,-8.0329],[110.7666,-8.0441],[110.7715,-8.0572],[110.774,-8.0592],[110.7785,-8.0676],[110.7796,-8.0757],[110.7788,-8.0842],[110.783,-8.0907],[110.7876,-8.1032],[110.7899,-8.1255],[110.788,-8.1278],[110.7859,-8.139],[110.7861,-8.1506],[110.7912,-8.1591],[110.7964,-8.162],[110.8005,-8.1614],[110.7996,-8.1667],[110.8041,-8.169],[110.8061,-8.1728],[110.7985,-8.1899],[110.7948,-8.1931],[110.7907,-8.1926],[110.7892,-8.1941],[110.7872,-8.1925],[110.7812,-8.1964],[110.7761,-8.1956],[110.7737,-8.1968],[110.7728,-8.1953],[110.7666,-8.1968],[110.7634,-8.1952],[110.755,-8.1974],[110.7537,-8.1952],[110.7483,-8.1972],[110.7373,-8.1926],[110.7301,-8.1941],[110.7352,-8.1847],[110.7401,-8.1815],[110.7373,-8.1699],[110.7333,-8.1697],[110.7311,-8.1659],[110.7283,-8.1673],[110.7267,-8.1646],[110.7302,-8.1621],[110.7279,-8.1586],[110.732,-8.1558],[110.7283,-8.1521],[110.729,-8.1459],[110.7358,-8.1427],[110.7396,-8.1377],[110.7424,-8.1368],[110.741,-8.1336],[110.7369,-8.1307],[110.7336,-8.1312],[110.7298,-8.1383],[110.7249,-8.1413],[110.7217,-8.1412],[110.7176,-8.1436],[110.7117,-8.1414],[110.7088,-8.1437],[110.7066,-8.1534],[110.7105,-8.155],[110.7108,-8.166],[110.7081,-8.1787],[110.7112,-8.186],[110.7099,-8.1866],[110.7062,-8.1833],[110.7043,-8.186],[110.7014,-8.1846],[110.6996,-8.1873],[110.6995,-8.1858],[110.6958,-8.1872],[110.689,-8.1859],[110.6887,-8.1803],[110.6911,-8.1785],[110.6922,-8.1722],[110.6945,-8.1708],[110.6963,-8.1661],[110.696,-8.1642],[110.6914,-8.1619],[110.6933,-8.1585],[110.6924,-8.1455],[110.6952,-8.1407],[110.6958,-8.136],[110.698,-8.1335],[110.6974,-8.1263],[110.6995,-8.1237],[110.6943,-8.1207],[110.6909,-8.1211],[110.6871,-8.1263],[110.6841,-8.128],[110.6669,-8.1285],[110.6671,-8.1345],[110.6717,-8.1392],[110.6709,-8.1444],[110.6664,-8.149],[110.6634,-8.1504],[110.6598,-8.1499],[110.6567,-8.1585],[110.6533,-8.163],[110.6525,-8.1701],[110.6444,-8.1685],[110.6368,-8.162],[110.6252,-8.1584],[110.6213,-8.1552],[110.6133,-8.1521],[110.6083,-8.1476],[110.6133,-8.1395],[110.6214,-8.1346],[110.6244,-8.1255],[110.6271,-8.124],[110.632,-8.1241],[110.6344,-8.121],[110.6351,-8.1051],[110.631,-8.1026],[110.6306,-8.0976],[110.6386,-8.0926],[110.6455,-8.0921],[110.6472,-8.0903],[110.6446,-8.0845],[110.6391,-8.0858],[110.636,-8.0824],[110.6315,-8.0811],[110.6301,-8.0783],[110.635,-8.0733],[110.6313,-8.0706],[110.6192,-8.0664],[110.6127,-8.066],[110.6077,-8.0597],[110.6069,-8.056],[110.5961,-8.0564],[110.5992,-8.0626],[110.5985,-8.0687],[110.588,-8.071],[110.5879,-8.0752],[110.5825,-8.0866],[110.575,-8.0859],[110.5596,-8.0757],[110.5594,-8.0941],[110.5582,-8.0984]],[[110.7625,-8.0944],[110.7623,-8.0944],[110.7623,-8.0945],[110.7625,-8.0944]],[[110.7123,-7.8516],[110.7122,-7.8514],[110.7122,-7.8516],[110.7123,-7.8516]],[[110.7057,-7.943],[110.7055,-7.9433],[110.7054,-7.9429],[110.7057,-7.943]],[[110.6157,-7.8818],[110.6158,-7.8818],[110.6156,-7.8816],[110.6157,-7.8818]],[[110.547,-8.0622],[110.5461,-8.0623],[110.547,-8.0623],[110.547,-8.0622]],[[110.5335,-7.9939],[110.5336,-7.9939],[110.5336,-7.9938],[110.5335,-7.9939]]]}},{"type":"Feature","properties":{"kabupaten":"Sleman"},"geometry":{"type":"Polygon","coordinates":[[[110.2977,-7.828],[110.2928,-7.834],[110.2887,-7.8339],[110.2876,-7.8307],[110.2851,-7.8297],[110.2876,-7.8222],[110.2851,-7.8179],[110.282,-7.8171],[110.2837,-7.8135],[110.2815,-7.8068],[110.2862,-7.8043],[110.2859,-7.8021],[110.2895,-7.7981],[110.2902,-7.794],[110.2863,-7.7901],[110.2862,-7.7879],[110.2882,-7.7873],[110.2887,-7.7856],[110.2862,-7.7847],[110.2831,-7.7869],[110.2786,-7.7863],[110.2733,-7.7937],[110.2705,-7.7932],[110.2678,-7.7958],[110.2636,-7.7942],[110.259,-7.7989],[110.2513,-7.8035],[110.2402,-7.8063],[110.2332,-7.8149],[110.2323,-7.81],[110.2283,-7.8056],[110.2299,-7.8031],[110.2351,-7.8004],[110.236,-7.7983],[110.2325,-7.7904],[110.229,-7.7888],[110.228,-7.7851],[110.22,-7.7764],[110.2218,-7.7732],[110.2224,-7.7672],[110.2195,-7.763],[110.222,-7.7599],[110.2185,-7.7581],[110.2202,-7.7547],[110.2178,-7.7523],[110.2195,-7.748],[110.2162,-7.7428],[110.2165,-7.7383],[110.2208,-7.7352],[110.2249,-7.7235],[110.2318,-7.7226],[110.2316,-7.7166],[110.233,-7.7134],[110.2373,-7.7134],[110.2438,-7.7101],[110.253,-7.7086],[110.2584,-7.7043],[110.2678,-7.7073],[110.2703,-7.7057],[110.2727,-7.7068],[110.2728,-7.7047],[110.2741,-7.7046],[110.2736,-7.7016],[110.2847,-7.6873],[110.2867,-7.6804],[110.2913,-7.6724],[110.2998,-7.6648],[110.303,-7.6562],[110.3227,-7.6452],[110.325,-7.642],[110.3328,-7.6374],[110.3348,-7.634],[110.3434,-7.6263],[110.3551,-7.6225],[110.3662,-7.6127],[110.3763,-7.6066],[110.3796,-7.6013],[110.3883,-7.5976],[110.391,-7.5951],[110.3901,-7.5925],[110.3964,-7.5893],[110.4001,-7.585],[110.4019,-7.5792],[110.4153,-7.563],[110.4288,-7.5521],[110.4407,-7.5464],[110.4461,-7.542],[110.4484,-7.5474],[110.4554,-7.5545],[110.4565,-7.5632],[110.4591,-7.5693],[110.46,-7.5856],[110.4628,-7.6024],[110.4685,-7.6175],[110.4685,-7.6372],[110.4919,-7.742],[110.4918,-7.7667],[110.5072,-7.769],[110.5118,-7.7716],[110.5116,-7.778],[110.5178,-7.7824],[110.5231,-7.7836],[110.5253,-7.7882],[110.5293,-7.7905],[110.5309,-7.7981],[110.5351,-7.7968],[110.5363,-7.794],[110.5374,-7.7947],[110.5362,-7.7977],[110.5398,-7.7979],[110.5406,-7.7947],[110.5455,-7.7926],[110.547,-7.7903],[110.5499,-7.7917],[110.5484,-7.7949],[110.5489,-7.7986],[110.5449,-7.8031],[110.5445,-7.8075],[110.5463,-7.8099],[110.5451,-7.8112],[110.5455,-7.8158],[110.5421,-7.8194],[110.5424,-7.8237],[110.5377,-7.8241],[110.5347,-7.8225],[110.5325,-7.8247],[110.5323,-7.8234],[110.5299,-7.8237],[110.5311,-7.8258],[110.5226,-7.8281],[110.519,-7.831],[110.515,-7.8302],[110.5144,-7.8281],[110.5112,-7.8289],[110.5102,-7.8232],[110.5074,-7.8216],[110.5053,-7.8236],[110.5015,-7.8224],[110.4923,-7.8229],[110.4845,-7.8213],[110.4854,-7.8185],[110.4814,-7.8175],[110.4794,-7.8249],[110.4771,-7.8241],[110.4769,-7.8254],[110.4756,-7.8251],[110.4759,-7.8238],[110.4732,-7.8232],[110.4684,-7.8271],[110.4699,-7.8271],[110.4695,-7.8286],[110.4661,-7.8277],[110.4651,-7.8221],[110.462,-7.8212],[110.4612,-7.8227],[110.46,-7.8198],[110.4561,-7.8214],[110.4537,-7.8206],[110.4526,-7.8247],[110.4439,-7.8239],[110.4443,-7.8278],[110.441,-7.8275],[110.4364,-7.8294],[110.4341,-7.835],[110.4354,-7.8366],[110.4299,-7.8373],[110.4299,-7.8319],[110.4311,-7.8321],[110.4315,-7.8303],[110.4285,-7.8298],[110.4261,-7.827],[110.4283,-7.8216],[110.4268,-7.8231],[110.4214,-7.8214],[110.423,-7.8186],[110.421,-7.8167],[110.421,-7.8068],[110.4229,-7.7963],[110.4203,-7.7917],[110.4214,-7.7907],[110.4208,-7.7864],[110.4094,-7.7874],[110.4092,-7.7863],[110.4066,-7.7876],[110.4063,-7.7855],[110.4037,-7.7879],[110.3984,-7.7883],[110.3986,-7.7855],[110.3959,-7.7885],[110.3921,-7.7855],[110.3888,-7.7801],[110.37,-7.7751],[110.3689,-7.7695],[110.3669,-7.7717],[110.3666,-7.7703],[110.3647,-7.7701],[110.3652,-7.7685],[110.3557,-7.7688],[110.3522,-7.7665],[110.3535,-7.7718],[110.3521,-7.7719],[110.3509,-7.768],[110.349,-7.77],[110.3463,-7.7854],[110.3436,-7.7919],[110.3398,-7.7923],[110.3386,-7.798],[110.3342,-7.7982],[110.3338,-7.8],[110.3318,-7.8006],[110.3323,-7.8033],[110.33,-7.805],[110.3298,-7.8079],[110.3278,-7.805],[110.3267,-7.8063],[110.3174,-7.8064],[110.3151,-7.8194],[110.3179,-7.8201],[110.3176,-7.8236],[110.3073,-7.8222],[110.3067,-7.8291],[110.3016,-7.8275],[110.2977,-7.828]],[[110.4307,-7.6537],[110.4311,-7.6527],[110.4309,-7.6524],[110.431,-7.6527],[110.4307,-7.6537]],[[110.3799,-7.6459],[110.38,-7.646],[110.38,-7.6459],[110.3799,-7.6459]],[[110.3455,-7.6536],[110.3454,-7.6536],[110.3453,-7.654],[110.3455,-7.6536]],[[110.342,-7.7147],[110.3421,-7.7149],[110.3421,-7.7147],[110.342,-7.7147]]]}},{"type":"Feature","properties":{"kabupaten":"Kota Yogyakarta"},"geometry":{"type":"Polygon","coordinates":[[[110.3664,-7.8266],[110.3516,-7.8256],[110.3526,-7.8236],[110.3508,-7.8214],[110.3511,-7.8183],[110.3526,-7.8163],[110.3511,-7.8145],[110.3522,-7.8124],[110.3457,-7.8114],[110.3443,-7.8075],[110.3468,-7.8024],[110.3475,-7.7952],[110.3495,-7.795],[110.3473,-7.7938],[110.3487,-7.7934],[110.3499,-7.7884],[110.3511,-7.7697],[110.3521,-7.7719],[110.3535,-7.7718],[110.3522,-7.7665],[110.3557,-7.7688],[110.3652,-7.7685],[110.3647,-7.7701],[110.3666,-7.7703],[110.3669,-7.7717],[110.3689,-7.7695],[110.37,-7.7751],[110.3884,-7.7799],[110.3924,-7.7858],[110.3972,-7.7884],[110.3959,-7.7928],[110.3987,-7.8002],[110.3978,-7.802],[110.4024,-7.8022],[110.4011,-7.8205],[110.4048,-7.8225],[110.4051,-7.8304],[110.4065,-7.8308],[110.4068,-7.833],[110.4065,-7.8345],[110.4022,-7.834],[110.4008,-7.832],[110.3991,-7.8335],[110.3993,-7.8278],[110.3937,-7.8271],[110.3934,-7.8296],[110.396,-7.8328],[110.3953,-7.8367],[110.3906,-7.8369],[110.3899,-7.8402],[110.3881,-7.8401],[110.3881,-7.8368],[110.3869,-7.8365],[110.3878,-7.8341],[110.3861,-7.8341],[110.3845,-7.8291],[110.3799,-7.8286],[110.3802,-7.8298],[110.3768,-7.831],[110.3761,-7.8292],[110.3751,-7.8311],[110.3757,-7.8269],[110.3739,-7.8244],[110.3727,-7.8281],[110.3693,-7.825],[110.3674,-7.8284],[110.3661,-7.8282],[110.3664,-7.8266]]]}}]}